{"place_id": 3573, "establishment": 62820, "name_fr": "Familiprix - Pharmacie Maged Wahba", "name_en": "Familiprix - Pharmacie Maged Wahba", "formatted_address": "1988 rue Ste Catherine Est MONTREAL H2K2H7 Canada", "latitude": 45.5240552, "longitude": -73.5507737, "is_virtual": 0, "availabilities": null}
{"place_id": 6486, "establishment": 60095, "name_fr": "H\u00f4pital Notre-Dame", "name_en": "H\u00f4pital Notre-Dame", "formatted_address": "1560 Sherbrooke est Montr\u00e9al H2L4M1 Canada", "latitude": 45.5263108, "longitude": -73.5636711, "is_virtual": 0, "availabilities": null}
{"place_id": 3375, "establishment": 63611, "name_fr": "Pharmaprix - Pharmacie Tran Thang Vu", "name_en": "Pharmaprix - Pharmacie Tran Thang Vu", "formatted_address": "1580, RUE ONTARIO EST, MONTREAL, H2L 1S5", "latitude": 45.5245696, "longitude": -73.5598799, "is_virtual": 0, "availabilities": null}
{"place_id": 3502, "establishment": 63250, "name_fr": "Jean-Coutu - Pharmacie Maher Bitar, Val\u00e9rie Savoie-Rosay, Lynn Minotti et Jean Coutu inc.", "name_en": "Jean-Coutu - Pharmacie Maher Bitar, Val\u00e9rie Savoie-Rosay, Lynn Minotti et Jean Coutu inc.", "formatted_address": "865, SAINTE-CATHERINE, MONTREAL, H2L 0E3", "latitude": 45.5161919, "longitude": -73.5585644, "is_virtual": 0, "availabilities": null}
{"place_id": 3303, "establishment": 61562, "name_fr": "Brunet - Pharmacie Rudy Hinh Thai Inc.", "name_en": "Brunet - Pharmacie Rudy Hinh Thai & Florence Gallet inc.", "formatted_address": "2005, SAINTE-CATHERINE EST MONTREAL H2K2H6 Canada", "latitude": 45.5244401, "longitude": -73.5510127, "is_virtual": 0, "availabilities": null}
{"place_id": 3345, "establishment": 61583, "name_fr": "Brunet Clinique - Pharmacie Victor DeSousa Inc.", "name_en": "Brunet Clinique - Pharmacie Victor DeSousa Inc.", "formatted_address": "1390, ONTARIO, MONTREAL, H2L 1S1", "latitude": 45.5233883, "longitude": -73.5608002, "is_virtual": 0, "availabilities": null}
{"place_id": 2023, "establishment": 60099, "name_fr": "CLSC de la Visitation", "name_en": "CLSC de la Visitation", "formatted_address": "1705 de la Visitation Montr\u00e9al H2L3C3 Canada", "latitude": 45.5209783, "longitude": -73.5589171, "is_virtual": 0, "availabilities": null}
{"place_id": 3261, "establishment": 63599, "name_fr": "Pharmaprix - Pharmacie Eric Van Hoenacker et Pierre-Beno\u00eet Tremblay", "name_en": "Pharmaprix - Pharmacie Eric Van Hoenacker et Pierre-Beno\u00eet Tremblay", "formatted_address": "901, RUE SAINTE-CATHERINE EST, MONTREAL, H2L 2E5", "latitude": 45.5166639, "longitude": -73.5582125, "is_virtual": 0, "availabilities": null}
{"place_id": 1113, "establishment": 8101, "name_fr": "Centre de pr\u00e9l\u00e8vements du CHUM", "name_en": "Centre de pr\u00e9l\u00e8vements du CHUM", "formatted_address": "1051, rue Sanguinet Pavillon D, 1er \u00e9tage, local D0141 Montr\u00e9al  H2X3E4 Canada", "latitude": 45.5112735, "longitude": -73.5574486, "is_virtual": 0, "availabilities": null}
{"place_id": 1374, "establishment": 1002, "name_fr": "Clinique de vaccination Gare d'autocars de Montr\u00e9al", "name_en": "Clinique de vaccination Gare d'autocars de Montr\u00e9al", "formatted_address": "1717 rue Berri Montr\u00e9al H2L4E9 Canada", "latitude": 45.5167519, "longitude": -73.5637182, "is_virtual": 0, "availabilities": null}
{"place_id": 1099, "establishment": 8099, "name_fr": "H\u00f4pital Notre-Dame", "name_en": "H\u00f4pital Notre-Dame", "formatted_address": "1560 rue Sherbrooke Est, Pavillon Deschamps, 1er \u00e9tage Montr\u00e9al H2L4M1 Canada", "latitude": 45.5257676, "longitude": -73.5642784, "is_virtual": 0, "availabilities": null}
{"place_id": 1015, "establishment": 2005, "name_fr": "H\u00f4pital Notre-Dame", "name_en": "H\u00f4pital Notre-Dame", "formatted_address": "1560, rue Sherbrooke Est Montr\u00e9al H2L4M1 Canada", "latitude": 45.5263108, "longitude": -73.5636711, "is_virtual": 0, "availabilities": null}
{"place_id": 805, "establishment": 5013, "name_fr": "CLSC Visitation", "name_en": "CLSC Visitation", "formatted_address": "1705 rue Visitation Montr\u00e9al H2L3C3 Canada", "latitude": 45.5209783, "longitude": -73.5589171, "is_virtual": 0, "availabilities": null}
{"place_id": 746, "establishment": 4009, "name_fr": "Clinique SIDEP +", "name_en": "Clinique SIDEP +", "formatted_address": "1705, rue de la Visitation, 3e \u00e9tage Montr\u00e9al H2L3C3 Canada", "latitude": 45.5209783, "longitude": -73.5589171, "is_virtual": 0, "availabilities": null}
{"place_id": 95, "establishment": 1002, "name_fr": "Centre-Sud - CLSC de la Visitation", "name_en": "Centre-Sud - CLSC de la Visitation", "formatted_address": "1705 rue de la Visitation Montr\u00e9al H2L3C3 Canada", "latitude": 45.5209783, "longitude": -73.5589171, "is_virtual": 0, "availabilities": null}
{"place_id": 3414, "establishment": 64112, "name_fr": "Proxim - Labib Ghali, Pharmacien", "name_en": "Proxim - Labib Ghali, Pharmacien", "formatted_address": "1900, RUE SAINTE-CATHERINE E. MONTREAL H2K2H5 Canada", "latitude": 45.5234844, "longitude": -73.551378, "is_virtual": 0, "availabilities": null}
{"place_id": 3517, "establishment": 64196, "name_fr": "Proximed - Pharmacie Martin Gilbert pharmacien inc.", "name_en": "Proximed - Pharmacie Martin Gilbert pharmacien inc.", "formatted_address": "800, ONTARIO, MONTREAL, H2L 1N9", "latitude": 45.5179341, "longitude": -73.5641158, "is_virtual": 0, "availabilities": null}
{"place_id": 3226, "establishment": 64727, "name_fr": "Uniprix Clinique - Pharmacie Sandra El-Bacha inc.", "name_en": "Uniprix Clinique - Pharmacie Sandra El-Bacha inc.", "formatted_address": "3-425, RUE SHERBROOKE EST MONTREAL H2L1J9 Canada", "latitude": 45.5178151, "longitude": -73.5678642, "is_virtual": 0, "availabilities": null}
{"place_id": 3282, "establishment": 64138, "name_fr": "Proximed - Am\u00e9lie Bouffard pharmacienne inc.", "name_en": "Proximed - Am\u00e9lie Bouffard pharmacienne inc.", "formatted_address": "1485 Atateken Montr\u00e9al H2L3L2 Canada", "latitude": 45.5181464, "longitude": -73.5580807, "is_virtual": 0, "availabilities": null}
{"place_id": 3225, "establishment": 65056, "name_fr": "Ind\u00e9pendant - Pharmacie Heba Muhey inc.", "name_en": "Ind\u00e9pendant - Pharmacie Heba Muhey inc.", "formatted_address": "101-1029, SAINT-DENIS, MONTREAL, H2X 3H9", "latitude": 45.5120033, "longitude": -73.5563045, "is_virtual": 0, "availabilities": null}
{"place_id": 3653, "establishment": 64208, "name_fr": "Proxim - Pharmacie Dikran Karlozian Inc.", "name_en": "Proxim - Pharmacie Dikran Karlozian Inc.", "formatted_address": "2297, RUE ONTARIO E., MONTREAL, H2K 1V9", "latitude": 45.5304286, "longitude": -73.5553578, "is_virtual": 0, "availabilities": null}
{"place_id": 3649, "establishment": 62823, "name_fr": "Familiprix-Clinique - Bernatchez Jean, Pharmacien", "name_en": "Familiprix-Clinique - Bernatchez Jean, Pharmacien", "formatted_address": "927, RUE RACHEL E., MONTREAL, H2J 2J2", "latitude": 45.5247467, "longitude": -73.5756534, "is_virtual": 0, "availabilities": null}
{"place_id": 3511, "establishment": 63251, "name_fr": "Jean-Coutu - Pharmacie Dave Larouche et Vy Ky Linh Le inc.", "name_en": "Jean-Coutu - Pharmacie Dave Larouche et Vy Ky Linh Le inc.", "formatted_address": "3745, BOUL. SAINT-LAURENT MONTREAL H2W1X8 Canada", "latitude": 45.5153623, "longitude": -73.575102, "is_virtual": 0, "availabilities": null}
{"place_id": 3509, "establishment": 64717, "name_fr": "Uniprix Clinique - Ta Tu Quan, Pharmacienne Inc.", "name_en": "Uniprix Clinique - Ta Tu Quan, Pharmacienne Inc.", "formatted_address": "995, RUE SAINT-LAURENT MONTREAL H2Z1J4 Canada", "latitude": 45.5079727, "longitude": -73.5591477, "is_virtual": 0, "availabilities": null}
{"place_id": 3337, "establishment": 63607, "name_fr": "Pharmaprix - Pharmacie Van Hoenacker et Tremblay", "name_en": "Pharmaprix - Pharmacie Van Hoenacker et Tremblay", "formatted_address": "3861, BOUL. SAINT-LAURENT MONTREAL H2W1Y1 Canada", "latitude": 45.5162604, "longitude": -73.5770151, "is_virtual": 0, "availabilities": null}
{"place_id": 3298, "establishment": 62810, "name_fr": "Familiprix-Clinique - Pharmacie Christian Deblois et Sophie Lamoureux inc.", "name_en": "Familiprix-Clinique - Pharmacie Christian Deblois et Sophie Lamoureux inc.", "formatted_address": "1851, SHERBROOKE Est suite 110 Montreal H2K4L5 Canada", "latitude": 45.5287923, "longitude": -73.5639752, "is_virtual": 0, "availabilities": null}
{"place_id": 804, "establishment": 5013, "name_fr": "CLSC Parthenais", "name_en": "CLSC Parthenais", "formatted_address": "2260 rue Parthenais Montr\u00e9al H2K3T5 Canada", "latitude": 45.5311168, "longitude": -73.5598235, "is_virtual": 0, "availabilities": null}
{"place_id": 566, "establishment": 1002, "name_fr": "Jeanne-Mance - CLSC Parthenais", "name_en": "Jeanne-Mance - CLSC Parthenais", "formatted_address": "2260 rue Parthenais Montr\u00e9al H2K3T5 Canada", "latitude": 45.5311195, "longitude": -73.5598209, "is_virtual": 0, "availabilities": null}
{"place_id": 97, "establishment": 1002, "name_fr": "Centre-Sud - CLSC Ste-Catherine", "name_en": "Centre-Sud - CLSC Ste-Catherine", "formatted_address": "66 rue Saint-Catherine Montr\u00e9al H2X1K6 Canada", "latitude": 45.5105943, "longitude": -73.5629387, "is_virtual": 0, "availabilities": null}
{"place_id": 94, "establishment": 1002, "name_fr": "Centre-Sud - Carrefour St-Eus\u00e8be", "name_en": "Centre-Sud - Carrefour St-Eus\u00e8be", "formatted_address": "2349 rue de Rouen Montr\u00e9al H2K1L8 Canada", "latitude": 45.5326407, "longitude": -73.5582637, "is_virtual": 0, "availabilities": null}
{"place_id": 6846, "establishment": 60095, "name_fr": "Centre Sablon", "name_en": "Centre Sablon", "formatted_address": "4265 avenue Papineau Montr\u00e9al H2H1T3 Canada", "latitude": 45.5313745, "longitude": -73.5704517, "is_virtual": 0, "availabilities": null}
{"place_id": 6921, "establishment": 60095, "name_fr": "\u00c9glise Santa Cruz", "name_en": "\u00c9glise Santa Cruz", "formatted_address": "60 rue Rachel Ouest Montr\u00e9al H2W1G3 Canada", "latitude": 45.5172159, "longitude": -73.5820156, "is_virtual": 0, "availabilities": null}
{"place_id": 6735, "establishment": 60095, "name_fr": "Carrefour St-Eus\u00e8be", "name_en": "Carrefour St-Eus\u00e8be", "formatted_address": "2349 de Rouen Montreal H2K1L8 Canada", "latitude": 45.5326407, "longitude": -73.5582637, "is_virtual": 0, "availabilities": null}
{"place_id": 5896, "establishment": 70022, "name_fr": "Palais des Congr\u00e8s - AstraZeneca", "name_en": "Palais des Congr\u00e8s - AstraZeneca", "formatted_address": "1001, Place Jean-Paul Riopelle Montr\u00e9al H2Z1X7 Canada", "latitude": 45.50386, "longitude": -73.5609689, "is_virtual": 0, "availabilities": null}
{"place_id": 3450, "establishment": 64116, "name_fr": "Proxim - Pharmacie Y. Chen", "name_en": "Proxim - Y. Chen Pharmacy", "formatted_address": "990, ST-URBAIN BUR. G.02 MONTREAL H2Z1K6 Canada", "latitude": 45.5064109, "longitude": -73.5601642, "is_virtual": 0, "availabilities": null}
{"place_id": 3500, "establishment": 64716, "name_fr": "Uniprix Clinique - Pharmacie G\u00e9raldine Lauryle Ngassa Happi, Pharmacienne Inc.", "name_en": "Uniprix Clinique - Pharmacie G\u00e9raldine Lauryle Ngassa Happi, Pharmacienne Inc.", "formatted_address": "4298, ST-DENIS, MONTREAL, H2J 2K8", "latitude": 45.5222848, "longitude": -73.5798594, "is_virtual": 0, "availabilities": null}
{"place_id": 3361, "establishment": 63274, "name_fr": "Jean-Coutu - Pharmacie Odile Terzibachi inc.", "name_en": "Jean-Coutu - Pharmacie Odile Terzibachi inc.", "formatted_address": "150, SAINTE-CATHERINE OUESTC. P. 181, MONTREAL, H5B 1B3", "latitude": 45.5075229, "longitude": -73.5643334, "is_virtual": 0, "availabilities": null}
{"place_id": 3443, "establishment": 63243, "name_fr": "Jean-Coutu - Marie Nguyen, Julie Dansereau & Julie Dubois pharmaciennes Inc.", "name_en": "Jean-Coutu - Marie Nguyen, Julie Dansereau & Julie Dubois pharmaciennes Inc.", "formatted_address": "501, AV. DU MONT-ROYAL EST MONTREAL H2J1W6 Canada", "latitude": 45.5251214, "longitude": -73.5820751, "is_virtual": 0, "availabilities": null}
{"place_id": 3242, "establishment": 64134, "name_fr": "Proxim - Pharmacie Chadi Kabak inc.", "name_en": "Proxim - Pharmacie Chadi Kabak inc.", "formatted_address": "4084, BOUL. SAINT-LAURENT, MONTREAL, H2W 1Y8", "latitude": 45.5171194, "longitude": -73.5803345, "is_virtual": 0, "availabilities": null}
{"place_id": 3186, "establishment": 62747, "name_fr": "Familiprix Extra - Pharmacie St\u00e9phane Ruest et Philippe Castonguay Inc.", "name_en": "Familiprix Extra - Pharmacie St\u00e9phane Ruest et Philippe Castonguay Inc.", "formatted_address": "2600, RUE ONTARIO EST LOCAL 192, MONTREAL, H2K 4K4", "latitude": 45.5339004, "longitude": -73.5508954, "is_virtual": 0, "availabilities": null}
{"place_id": 3139, "establishment": 63252, "name_fr": "Jean-Coutu - Pharmacie Dave Larouche et Vy Ky Linh Le inc.", "name_en": "Jean-Coutu - Pharmacie Dave Larouche et Vy Ky Linh Le inc.", "formatted_address": "305, RUE SHERBROOKE OUEST MONTREAL H2X1Y1 Canada", "latitude": 45.5086742, "longitude": -73.5713497, "is_virtual": 0, "availabilities": null}
{"place_id": 2758, "establishment": 60098, "name_fr": "Palais des congr\u00e8s", "name_en": "Palais des congr\u00e8s", "formatted_address": "1001 Place Jean-Paul Riopelle Montr\u00e9al H2Z1X7 Canada", "latitude": 45.50386, "longitude": -73.5609689, "is_virtual": 0, "availabilities": null}
{"place_id": 6755, "establishment": 73245, "name_fr": "Pharmacie Doria Boukheroufa - AstraZeneca", "name_en": "Pharmacie Doria Boukheroufa - AstraZeneca", "formatted_address": "677, RUE SAINTE-CATHERINE O., BUR. M-19A, MONTREAL, H3B 5K4", "latitude": 45.5035246, "longitude": -73.5713153, "is_virtual": 0, "availabilities": null}
{"place_id": 6258, "establishment": 73614, "name_fr": "Pharmacie F\u00e9lice Saulnier - AstraZeneca", "name_en": "Pharmacie F\u00e9lice Saulnier - AstraZeneca", "formatted_address": "1, AV. DU MONT-ROYAL E., MONTREAL, H2T 1N4", "latitude": 45.520419, "longitude": -73.5864552, "is_virtual": 0, "availabilities": null}
{"place_id": 3404, "establishment": 63614, "name_fr": "Pharmaprix - Pharmacie F\u00e9lice Saulnier", "name_en": "Pharmaprix - Pharmacie F\u00e9lice Saulnier", "formatted_address": "1, AV. DU MONT-ROYAL E., MONTREAL, H2T 1N4", "latitude": 45.520419, "longitude": -73.5864552, "is_virtual": 0, "availabilities": null}
{"place_id": 6245, "establishment": 73595, "name_fr": "Pharmacie Daniel Mongrain - AstraZeneca", "name_en": "Pharmacie Daniel Mongrain - AstraZeneca", "formatted_address": "1, PLACE VILLE MARIE #11230 MONTREAL H3B3Y1 Canada", "latitude": 45.501387, "longitude": -73.5698159, "is_virtual": 0, "availabilities": null}
{"place_id": 6731, "establishment": 68021, "name_fr": "Centre Bell", "name_en": "Bell Centre", "formatted_address": "1909 Avenue des Canadiens-de-Montr\u00e9al Montr\u00e9al H4B5G0 Canada", "latitude": 45.4961156, "longitude": -73.5695753, "is_virtual": 0, "availabilities": null}
{"place_id": 3363, "establishment": 64661, "name_fr": "Uniprix - Mariane Gagnon Pharmacienne Inc.", "name_en": "Uniprix - Mariane Gagnon Pharmacienne Inc.", "formatted_address": "5101, RUE SAINT-DENIS MONTREAL H2J2M1 Canada", "latitude": 45.5271309, "longitude": -73.5895282, "is_virtual": 0, "availabilities": null}
{"place_id": 3486, "establishment": 63623, "name_fr": "Pharmaprix - Pharmacie Tu Le Luong et Bop Nissay Ly", "name_en": "Pharmaprix - Pharmacie Tu Le Luong et Bop Nissay Ly", "formatted_address": "2759, RUE SHERBROOKE EST, MONTREAL, H2K 1G9", "latitude": 45.5390472, "longitude": -73.5607048, "is_virtual": 0, "availabilities": null}
{"place_id": 3304, "establishment": 64753, "name_fr": "Uniprix Sant\u00e9 - Pharmacie Nadine Fadel inc.", "name_en": "Uniprix Sant\u00e9 - Pharmacie Nadine Fadel inc.", "formatted_address": "4898, AV. DU PARC MONTREAL H2V4E6 Canada", "latitude": 45.5187173, "longitude": -73.5943328, "is_virtual": 0, "availabilities": null}
{"place_id": 3341, "establishment": 63272, "name_fr": "Jean-Coutu - Zo\u00e9 Duclos pharmacienne inc.", "name_en": "Jean-Coutu - Zo\u00e9 Duclos pharmacienne inc.", "formatted_address": "1351, LAURIER EST MONTREAL H2J1H6 Canada", "latitude": 45.5336984, "longitude": -73.5839179, "is_virtual": 0, "availabilities": null}
{"place_id": 3221, "establishment": 63595, "name_fr": "Pharmaprix - Pharmacie Daniel Mongrain", "name_en": "Pharmaprix - Pharmacie Daniel Mongrain", "formatted_address": "1, PLACE VILLE MARIE #11230, MONTREAL, H3B 3Y1", "latitude": 45.501387, "longitude": -73.5698159, "is_virtual": 0, "availabilities": null}
{"place_id": 3284, "establishment": 64751, "name_fr": "Uniprix Sant\u00e9 - Pharmacie Amir Helkany Inc.", "name_en": "Uniprix Sant\u00e9 - Pharmacie Amir Helkany Inc.", "formatted_address": "895, RUE DE LA GAUCHETI\u00c8RE OUEST LOCAL 450A, MONTREAL, H3B 4G1", "latitude": 45.5001134, "longitude": -73.5665231, "is_virtual": 0, "availabilities": null}
{"place_id": 1365, "establishment": 1075, "name_fr": "Clinique m\u00e9dicale Angus", "name_en": "Clinique m\u00e9dicale Angus", "formatted_address": "4101, rue Molson Montr\u00e9al H1Y3L1 Canada", "latitude": 45.5418591, "longitude": -73.5645948, "is_virtual": 0, "availabilities": null}
{"place_id": 3172, "establishment": 64127, "name_fr": "Proxim - Fady Habashi pharmacien Inc.", "name_en": "Proxim - Fady Habashi pharmacien Inc.", "formatted_address": "85, RUE VILLENEUVE O. MONTREAL H2T2R4 Canada", "latitude": 45.5204328, "longitude": -73.5904273, "is_virtual": 0, "availabilities": null}
{"place_id": 1195, "establishment": 1062, "name_fr": "CLSC de Rosemont", "name_en": "CLSC de Rosemont", "formatted_address": "2909, rue Rachel Est Montr\u00e9al H1W0A9 Canada", "latitude": 45.5425493, "longitude": -73.5620915, "is_virtual": 0, "availabilities": null}
{"place_id": 807, "establishment": 5013, "name_fr": "CLSC Plateau-Mont-Royal", "name_en": "CLSC Plateau-Mont-Royal", "formatted_address": "4625, de Lorimier Montr\u00e9al H2H2B6 Canada", "latitude": 45.5362516, "longitude": -73.5740325, "is_virtual": 0, "availabilities": null}
{"place_id": 806, "establishment": 5013, "name_fr": "CLSC Saint-Louis-du-Parc", "name_en": "CLSC Saint-Louis-du-Parc", "formatted_address": "15 Mont-Royal #100 Montr\u00e9al H2T2R9 Canada", "latitude": 45.5199682, "longitude": -73.5869111, "is_virtual": 0, "availabilities": null}
{"place_id": 110, "establishment": 1002, "name_fr": "Plateau - CLSC du Plateau-Mont-Royal", "name_en": "Plateau - CLSC du Plateau-Mont-Royal", "formatted_address": "4625, avenue de Lorimier Montr\u00e9al H2H2B4 Canada", "latitude": 45.5362516, "longitude": -73.5740325, "is_virtual": 0, "availabilities": null}
{"place_id": 106, "establishment": 1002, "name_fr": "Centre-Sud - CLSC de Saint-Louis-du-Parc", "name_en": "Centre-Sud - CLSC de Saint-Louis-du-Parc", "formatted_address": "15, Mont-Royal Ouest Montr\u00e9al H2T2R9 Canada", "latitude": 45.5198888, "longitude": -73.5868576, "is_virtual": 0, "availabilities": null}
{"place_id": 6364, "establishment": 74180, "name_fr": "Raymond Wong, pharmacien inc. - AstraZeneca", "name_en": "Raymond Wong, pharmacien inc. - AstraZeneca", "formatted_address": "225 rue MAGUIRE MONTREAL H2T0A2 Canada", "latitude": 45.5265308, "longitude": -73.5943192, "is_virtual": 0, "availabilities": null}
{"place_id": 3447, "establishment": 64188, "name_fr": "Proximed - Pharmacie Ouafaa Afifi inc.", "name_en": "Proximed - Pharmacie Ouafaa Afifi inc.", "formatted_address": "5200, MOLSON139C, MONTREAL, H1Y 0C1", "latitude": 45.5430763, "longitude": -73.5742714, "is_virtual": 0, "availabilities": null}
{"place_id": 5973, "establishment": 74126, "name_fr": "Pharmacie Kazimierz Babinski et Moham I. Kotb Inc. - AstraZeneca", "name_en": "Pharmacie Kazimierz Babinski et Moham I. Kotb Inc. - AstraZeneca", "formatted_address": "1245, NOTRE-DAME OUEST, MONTREAL, H3C 0B1", "latitude": 45.4935335, "longitude": -73.5645829, "is_virtual": 0, "availabilities": null}
{"place_id": 3426, "establishment": 63281, "name_fr": "Jean-Coutu - Pharmacie Thanh-Mai Tran et Francis Hanna Aklass inc.", "name_en": "Jean-Coutu - Pharmacie Thanh-Mai Tran et Francis Hanna Aklass inc.", "formatted_address": "1224, RUE NOTRE-DAME OUEST, MONTREAL, H3C 1K5", "latitude": 45.4938251, "longitude": -73.5635092, "is_virtual": 0, "availabilities": null}
{"place_id": 3441, "establishment": 64115, "name_fr": "Proxim - M.Leclerc et G.Couillard, Pharmaciens", "name_en": "Proxim - M.Leclerc et G.Couillard, Pharmaciens", "formatted_address": "1067, RUE LAURIER O. OUTREMONT H2V2L2 Canada", "latitude": 45.5179259, "longitude": -73.5975979, "is_virtual": 0, "availabilities": null}
{"place_id": 3162, "establishment": 64126, "name_fr": "Proxim - Pharmacie Kazimierz Babinski et Moham I. Kotb Inc.", "name_en": "Proxim - Pharmacie Kazimierz Babinski et Moham I. Kotb Inc.", "formatted_address": "1245, NOTRE-DAME OUEST, MONTREAL, H3C 0B1", "latitude": 45.4935335, "longitude": -73.5645829, "is_virtual": 0, "availabilities": null}
{"place_id": 3181, "establishment": 63631, "name_fr": "Pharmaprix - Pharmacie Alexandre Parsy et Eric Kamau", "name_en": "Pharmaprix - Pharmacie Alexandre Parsy et Eric Kamau", "formatted_address": "1000, RUE WELLINGTON, MONTREAL, H3C 1V4", "latitude": 45.4939583, "longitude": -73.5564697, "is_virtual": 0, "availabilities": null}
{"place_id": 7527, "establishment": 60095, "name_fr": "YMCA du Parc", "name_en": "YMCA du Parc", "formatted_address": "5550 av du Parc Montreal H2V4H1 Canada", "latitude": 45.5220761, "longitude": -73.6025951, "is_virtual": 0, "availabilities": null}
{"place_id": 6230, "establishment": 65053, "name_fr": "Pharmacie Michael Assaraf (1984 Sherbrooke O.)", "name_en": "Pharmacie Michael Assaraf (1984 Sherbrooke O.)", "formatted_address": "1984 SHERBROOKE Ouest,  MONTREAL H3H1E8 Canada Montreal H3H1E6 Canada", "latitude": 45.493814, "longitude": -73.5839169, "is_virtual": 0, "availabilities": null}
{"place_id": 6085, "establishment": 73181, "name_fr": "Pharmacie May Bessissow inc. - AstraZeneca", "name_en": "Pharmacie May Bessissow inc. - AstraZeneca", "formatted_address": "832, RUE SAINT-LAURENT O. LONGUEUIL J4K1C3 Canada", "latitude": 45.5282564, "longitude": -73.5124612, "is_virtual": 0, "availabilities": null}
{"place_id": 2648, "establishment": 60142, "name_fr": "CUSM-H\u00f4pital g\u00e9n\u00e9ral de Montr\u00e9al", "name_en": "MUHC-Montreal General Hospital", "formatted_address": "1650 Cedar Ave Montr\u00e9al H3G1A4 Canada", "latitude": 45.4969778, "longitude": -73.5890681, "is_virtual": 0, "availabilities": null}
{"place_id": 1341, "establishment": 4015, "name_fr": "CLSC M\u00e9tro", "name_en": "CLSC M\u00e9tro", "formatted_address": "1801 Boulevard de Maisonneuve Ouest Montr\u00e9al H3H1J9 Canada", "latitude": 45.4945406, "longitude": -73.5809309, "is_virtual": 0, "availabilities": null}
{"place_id": 1188, "establishment": 1062, "name_fr": "CLSC Hochelaga-Maisonneuve", "name_en": "CLSC Hochelaga-Maisonneuve", "formatted_address": "4201, rue Ontario Est Montr\u00e9al H1V1K2 Canada", "latitude": 45.5514409, "longitude": -73.5410617, "is_virtual": 0, "availabilities": null}
{"place_id": 1091, "establishment": 8097, "name_fr": "Centre de pr\u00e9l\u00e8vement H\u00f4pital g\u00e9n\u00e9ral de Montr\u00e9al", "name_en": "Montreal General Hospital Test Center", "formatted_address": "1650 Cedar Ave, Locale C6-153 (6i\u00e8me \u00e9tage)  Montr\u00e9al H3G1A4 Canada", "latitude": 45.4969849, "longitude": -73.5887994, "is_virtual": 0, "availabilities": null}
{"place_id": 1064, "establishment": 8088, "name_fr": "CLSC M\u00e9tro", "name_en": "CLSC M\u00e9tro", "formatted_address": "1801 Boulevard de Maisonneuve Ouest Montr\u00e9al H3H1J9 Canada", "latitude": 45.4945406, "longitude": -73.5809309, "is_virtual": 0, "availabilities": null}
{"place_id": 4375, "establishment": 63583, "name_fr": "Pharmaprix - Pharmacie Hassan Awada", "name_en": "Pharmaprix - Pharmacie Hassan Awada", "formatted_address": "425, SAINT-CHARLES, LONGUEUIL, J4H 1G1", "latitude": 45.5355674, "longitude": -73.5140583, "is_virtual": 0, "availabilities": null}
{"place_id": 6379, "establishment": 70022, "name_fr": "Clinique de vaccination Pointe-Saint-Charles - Astrazeneca", "name_en": "Clinique de vaccination Pointe-Saint-Charles - Astrazeneca", "formatted_address": "2115 rue Centre Montr\u00e9al H3K1J4 Canada", "latitude": 45.4812726, "longitude": -73.5651342, "is_virtual": 0, "availabilities": null}
{"place_id": 6011, "establishment": 72603, "name_fr": "Ginette Lehoux et Bruce Noivo pharmaciens Inc. - AstraZeneca", "name_en": "Ginette Lehoux et Bruce Noivo pharmaciens Inc. - AstraZeneca", "formatted_address": "361, RUE SAINT-JEAN, LONGUEUIL, J4H 2X7", "latitude": 45.5358394, "longitude": -73.5075835, "is_virtual": 0, "availabilities": null}
{"place_id": 5895, "establishment": 70021, "name_fr": "Stade olympique atrium - AstraZeneca", "name_en": "Stade olympique atrium - AstraZeneca", "formatted_address": "4545, avenue Pierre-De Coubertin Montr\u00e9al Montr\u00e9al H1V0B2 Canada", "latitude": 45.5577438, "longitude": -73.5515478, "is_virtual": 0, "availabilities": null}
{"place_id": 5240, "establishment": 60096, "name_fr": "Clinique de vaccination Pointe-Saint-Charles", "name_en": "Clinique de vaccination Pointe-Saint-Charles", "formatted_address": "2115 rue Centre Montr\u00e9al H3K1J4 Canada", "latitude": 45.4812726, "longitude": -73.5651342, "is_virtual": 0, "availabilities": null}
{"place_id": 4220, "establishment": 64083, "name_fr": "Proxim - Pharmacie Pierre Bergeron, Fran\u00e7ois Dupuis & Issa Karim Inc.", "name_en": "Proxim - Pharmacie Pierre Bergeron, Fran\u00e7ois Dupuis & Issa Karim Inc.", "formatted_address": "490 victoria SAINT-LAMBERT J4P2J4 Canada", "latitude": 45.501675, "longitude": -73.511348, "is_virtual": 0, "availabilities": null}
{"place_id": 4250, "establishment": 64174, "name_fr": "Proximed - Kinda Bouz et Roua Bouz pharmaciennes inc.", "name_en": "Proximed - Kinda Bouz et Roua Bouz pharmaciennes inc.", "formatted_address": "780, BOUL. STE-FOY LONGUEUIL J4J1Z3 Canada", "latitude": 45.5235585, "longitude": -73.4963146, "is_virtual": 0, "availabilities": null}
{"place_id": 2033, "establishment": 60109, "name_fr": "Universit\u00e9 de Montr\u00e9al-Campus MIL-B", "name_en": "Universit\u00e9 de Montr\u00e9al", "formatted_address": "1375 Ave.Th\u00e9r\u00e8se-Lavoie-Roux, Montr\u00e9al, QC H2V 0B3 Montr\u00e9al H2V0B3 Canada", "latitude": 45.5231104, "longitude": -73.6196605, "is_virtual": 0, "availabilities": null}
{"place_id": 4207, "establishment": 65011, "name_fr": "Clinique-Sant\u00e9 - Bao Khuong Huynh pharmacien inc.", "name_en": "Clinique-Sant\u00e9 - Bao Khuong Huynh pharmacien inc.", "formatted_address": "1260, RUE STE-H\u00c9L\u00c8NE, LONGUEUIL, J4K 3S6", "latitude": 45.5180675, "longitude": -73.4998053, "is_virtual": 0, "availabilities": null}
{"place_id": 2013, "establishment": 60089, "name_fr": "Stade Olympique/SAQ", "name_en": "Stade Olympique/SAQ", "formatted_address": "4545 Avenue Pierre-De Coubertin Montr\u00e9al H1V0B2 Canada", "latitude": 45.5577438, "longitude": -73.5515478, "is_virtual": 0, "availabilities": null}
{"place_id": 1157, "establishment": 8105, "name_fr": "Centre de pr\u00e9l\u00e8vements de l\u2019H\u00f4pital Jean-Talon", "name_en": "Centre de pr\u00e9l\u00e8vements de l\u2019H\u00f4pital Jean-Talon", "formatted_address": "1385, rue Jean-Talon Est 1er \u00e9tage local E101.1 Montr\u00e9al H2E1S6 Canada", "latitude": 45.5458738, "longitude": -73.6093426, "is_virtual": 0, "availabilities": null}
{"place_id": 1065, "establishment": 8088, "name_fr": "CLSC Parc-Extension", "name_en": "CLSC Parc-Extension", "formatted_address": "7085 Rue Hutchison Montr\u00e9al H3N1Y9 Canada", "latitude": 45.5295752, "longitude": -73.6210077, "is_virtual": 0, "availabilities": null}
{"place_id": 111, "establishment": 1002, "name_fr": "St-Henri -  CSLC St-Henri", "name_en": "St-Henri -  CSLC St-Henri", "formatted_address": "3833 Rue Notre-Dame Ouest Montr\u00e9al H4C1P8 Canada", "latitude": 45.4788276, "longitude": -73.583788, "is_virtual": 0, "availabilities": null}
{"place_id": 6396, "establishment": 70026, "name_fr": "Clinique de vaccination Christophe-Colomb - AstraZeneca", "name_en": "Clinique de vaccination Christophe-Colomb - AstraZeneca", "formatted_address": "7355 avenue Christophe-Colomb Villeray H2R2S5 Canada", "latitude": 45.5439804, "longitude": -73.6146355, "is_virtual": 0, "availabilities": null}
{"place_id": 2675, "establishment": 60084, "name_fr": "Clinique de vaccination Christophe-Colomb", "name_en": "Clinique de vaccination Christophe-Colomb", "formatted_address": "7355, avenue Christophe-Colomb Villeray H2R2S5 Canada", "latitude": 45.5439804, "longitude": -73.6146355, "is_virtual": 0, "availabilities": null}
{"place_id": 4358, "establishment": 63567, "name_fr": "Pharmaprix - Pharmacie Alain Lafrance", "name_en": "Pharmaprix - Pharmacie Alain Lafrance", "formatted_address": "1401, CH. CHAMBLY STE 6, LONGUEUIL, J4J 3X6", "latitude": 45.5327259, "longitude": -73.4852817, "is_virtual": 0, "availabilities": null}
{"place_id": 6523, "establishment": 8028, "name_fr": "D\u00e9pistage-Clinique Chauveau", "name_en": "D\u00e9pistage-Clinique Chauveau", "formatted_address": "5455 rue chauveau Montr\u00e9al H1N1G8 Canada", "latitude": 45.5705746, "longitude": -73.5478508, "is_virtual": 0, "availabilities": null}
{"place_id": 4368, "establishment": 63576, "name_fr": "Pharmaprix - Pharmacie Caroline Gilbert", "name_en": "Pharmaprix - Pharmacie Caroline Gilbert", "formatted_address": "1301, CURE-POIRIER, LONGUEUIL, J4K 2G6", "latitude": 45.512244, "longitude": -73.4932157, "is_virtual": 0, "availabilities": null}
{"place_id": 1468, "establishment": 8118, "name_fr": "Centre hospitalier universitaire Sainte-Justine", "name_en": "Sainte-Justine university hospital center", "formatted_address": "3175 Chemin de la C\u00f4te-Sainte-Catherine Montr\u00e9al H3T1C5 Canada", "latitude": 45.5034835, "longitude": -73.6243862, "is_virtual": 0, "availabilities": null}
{"place_id": 1363, "establishment": 1073, "name_fr": "Clinique m\u00e9dicale Maisonneuve-Rosemont", "name_en": "Clinique m\u00e9dicale Maisonneuve-Rosemont", "formatted_address": "5345, boulevard de l'Assomption Montr\u00e9al  H1T4B3 Canada", "latitude": 45.5731986, "longitude": -73.5574216, "is_virtual": 0, "availabilities": null}
{"place_id": 1413, "establishment": 4014, "name_fr": "CLSC C\u00f4te-des-Neiges", "name_en": "CLSC C\u00f4tes-des-Neiges", "formatted_address": "5700 chemin de la C\u00f4te-des-Neiges Montr\u00e9al H3T2A8 Canada", "latitude": 45.4982316, "longitude": -73.6272835, "is_virtual": 0, "availabilities": null}
{"place_id": 1095, "establishment": 8088, "name_fr": "CLSC C\u00f4te-des-Neiges", "name_en": "CLSC C\u00f4te-des-Neiges", "formatted_address": "5700 Chemin de la C\u00f4te-des-Neiges Montr\u00e9al H3T2A8 Canada", "latitude": 45.4982316, "longitude": -73.6272835, "is_virtual": 0, "availabilities": null}
{"place_id": 1100, "establishment": 8100, "name_fr": "H\u00f4pital Maisonneuve-Rosemont - Centre de pr\u00e9l\u00e8vements - CSA", "name_en": "H\u00f4pital Maisonneuve-Rosemont - Centre de pr\u00e9l\u00e8vements - CSA", "formatted_address": "5415, boul. de l\u2019Assomption Montr\u00e9al H1T2M4 Canada", "latitude": 45.5735643, "longitude": -73.5590649, "is_virtual": 0, "availabilities": null}
{"place_id": 1092, "establishment": 8098, "name_fr": "Centre de pr\u00e9l\u00e8vement Centre hospitalier de St-Mary\u2019s", "name_en": "St-Mary's Hospital Test Center", "formatted_address": "3830 avenue Lacombe, Locale G109 (1i\u00e8re \u00e9tage/RC) Montr\u00e9al H3T1M5 Canada", "latitude": 45.4947796, "longitude": -73.6239577, "is_virtual": 0, "availabilities": null}
{"place_id": 1087, "establishment": 8093, "name_fr": "Centre de pr\u00e9l\u00e8vement H\u00f4pital g\u00e9n\u00e9ral juif", "name_en": "Jewish General Hospital - Test Centre", "formatted_address": "3755 Chemin de la C\u00f4te-Sainte-Catherine,  Locale E-109  (1er \u00e9tage) Montr\u00e9al H3T1E2 Canada", "latitude": 45.4979653, "longitude": -73.6295767, "is_virtual": 0, "availabilities": null}
{"place_id": 865, "establishment": 8030, "name_fr": "CLSC Villeray", "name_en": "CLSC Villeray", "formatted_address": "1415 Rue Jarry E Montr\u00e9al H2E1A7 Canada", "latitude": 45.551257, "longitude": -73.621061, "is_virtual": 0, "availabilities": null}
{"place_id": 733, "establishment": 8002, "name_fr": "Point de service de l'Ile des Soeurs", "name_en": "Point de service de l'Ile des Soeurs", "formatted_address": "1, Place du Commerce, Suite 300, Verdun H3E1A2 Canada", "latitude": 45.4684545, "longitude": -73.5457339, "is_virtual": 0, "availabilities": null}
{"place_id": 4944, "establishment": 63337, "name_fr": "Jean-Coutu - Pharmacie Charles Rivest Inc.", "name_en": "Jean-Coutu - Pharmacie Charles Rivest Inc.", "formatted_address": "1748, chemin chambly Longueuil J4J3X5 Canada", "latitude": 45.5296335, "longitude": -73.4830239, "is_virtual": 0, "availabilities": null}
{"place_id": 2647, "establishment": 60141, "name_fr": "CUSM-Glen", "name_en": "MUHC-Glen", "formatted_address": "1001 boul. D\u00e9carie-Institut de recherche/Research Institute Bloc E Montr\u00e9al H4A3J1 Canada", "latitude": 45.4732202, "longitude": -73.6009187, "is_virtual": 0, "availabilities": null}
{"place_id": 926, "establishment": 8059, "name_fr": "CLSC de Longueuil-Ouest", "name_en": "CLSC de Longueuil-Ouest", "formatted_address": "201 Boulevard Cur\u00e9-Poirier Ouest Longueuil J4J2G4 Canada", "latitude": 45.5276941, "longitude": -73.4832489, "is_virtual": 0, "availabilities": null}
{"place_id": 7538, "establishment": 60141, "name_fr": "Patients hospitalis\u00e9s", "name_en": "Hospitalized patients", "formatted_address": "1001 Decarie Blvd Montreal H4A3J1 Canada", "latitude": 45.4732202, "longitude": -73.6009187, "is_virtual": 0, "availabilities": null}
{"place_id": 7541, "establishment": 60142, "name_fr": "Patients hospitalis\u00e9s", "name_en": "Hospitalized patients", "formatted_address": "1001 Decarie Blvd Montreal H4A3J1 Canada", "latitude": 45.4732202, "longitude": -73.6009187, "is_virtual": 0, "availabilities": null}
{"place_id": 4264, "establishment": 64606, "name_fr": "Uniprix - Pharmacie Fleury, Dupuis et Bergeron (St-Lambert)", "name_en": "Uniprix - Pharmacie Fleury, Dupuis et Bergeron (St-Lambert)", "formatted_address": "1445, RUE VICTORIA SAINT-LAMBERT J4R1R5 Canada", "latitude": 45.49015, "longitude": -73.49389, "is_virtual": 0, "availabilities": null}
{"place_id": 6485, "establishment": 60095, "name_fr": "H\u00f4pital de Verdun", "name_en": "H\u00f4pital de Verdun", "formatted_address": "4000 boulevard LaSalle Montr\u00e9al H4G2A3 Canada", "latitude": 45.4640886, "longitude": -73.5642328, "is_virtual": 0, "availabilities": null}
{"place_id": 1190, "establishment": 1062, "name_fr": "CLSC de Saint-Michel", "name_en": "CLSC de Saint-Michel", "formatted_address": "3355, rue Jarry Est Montr\u00e9al H1Z2E5 Canada", "latitude": 45.5654139, "longitude": -73.6084024, "is_virtual": 0, "availabilities": null}
{"place_id": 1192, "establishment": 1062, "name_fr": "CLSC Olivier-Guimond", "name_en": "CLSC Olivier-Guimond", "formatted_address": "5810, rue Sherbrooke Est Montr\u00e9al H1N1B2 Canada", "latitude": 45.5749412, "longitude": -73.5474222, "is_virtual": 0, "availabilities": null}
{"place_id": 1101, "establishment": 8100, "name_fr": "H\u00f4pital Maisonneuve-Rosemont - Centre de pr\u00e9l\u00e8vements du pavillon Rosemont", "name_en": "H\u00f4pital Maisonneuve-Rosemont - Centre de pr\u00e9l\u00e8vements du pavillon Rosemont", "formatted_address": "5689 Boulevard Rosemont Montr\u00e9al H1T2H1 Canada", "latitude": 45.577454, "longitude": -73.5618858, "is_virtual": 0, "availabilities": null}
{"place_id": 1114, "establishment": 8102, "name_fr": "H\u00f4pital de Verdun", "name_en": "H\u00f4pital de Verdun", "formatted_address": "4000 Boul. Lasalle, Rez-de-chauss\u00e9e local G1-509 Montr\u00e9al H4G2A3 Canada", "latitude": 45.4640162, "longitude": -73.5636295, "is_virtual": 0, "availabilities": null}
{"place_id": 1084, "establishment": 8091, "name_fr": "Centre de pr\u00e9l\u00e8vement H\u00f4pital de Montr\u00e9al pour enfants \u2013 Site Glen", "name_en": "Montreal Children's Hospital Pediatric Test Center - Glen Site", "formatted_address": "1001 boul. Decarie,  Entr\u00e9e HME \u2013 Local B02.5118 (2i\u00e8me \u00e9tage) Montr\u00e9al H4A3J1 Canada", "latitude": 45.4732623, "longitude": -73.6015785, "is_virtual": 0, "availabilities": null}
{"place_id": 1085, "establishment": 8092, "name_fr": "Centre de pr\u00e9l\u00e8vement H\u00f4pital Royal Victoria \u2013 Site Glen Adulte", "name_en": "Royal Victoria Hospital Test Center - Glen Site Adult", "formatted_address": "1001 boul. Decarie, Entr\u00e9e HRV \u2013 Locale D02.2307 (2i\u00e8me \u00e9tage) Montr\u00e9al H4A3J1 Canada", "latitude": 45.4730245, "longitude": -73.6007662, "is_virtual": 0, "availabilities": null}
{"place_id": 1072, "establishment": 7005, "name_fr": "H\u00f4pital Maisonneuve-Rosemont ", "name_en": "H\u00f4pital Maisonneuve-Rosemont ", "formatted_address": "5689 boulevard Rosemont, Pavillon Rosemont Montr\u00e9al H1T2H1 Canada", "latitude": 45.5774378, "longitude": -73.5618076, "is_virtual": 0, "availabilities": null}
{"place_id": 1016, "establishment": 2004, "name_fr": "H\u00f4pital de Verdun", "name_en": "H\u00f4pital de Verdun", "formatted_address": "4000, boulevard LaSalle Montr\u00e9al  H4G2A3 Canada", "latitude": 45.4640886, "longitude": -73.5642328, "is_virtual": 0, "availabilities": null}
{"place_id": 988, "establishment": 4010, "name_fr": "Clinique SIDEP+ de la Mont\u00e9r\u00e9gie-Centre", "name_en": "Clinique SIDEP+ de la Mont\u00e9r\u00e9gie-Centre", "formatted_address": "3120 Boulevard Taschereau Greenfield Park J4V2H1 Canada", "latitude": 45.497265, "longitude": -73.4862438, "is_virtual": 0, "availabilities": null}
{"place_id": 945, "establishment": 7004, "name_fr": "Clinique p\u00e9diatrique de l'H\u00f4pital Charles-Le-Moyne (situ\u00e9e dans la Clinique Azur)", "name_en": "Clinique p\u00e9diatrique de l'H\u00f4pital Charles-Le-Moyne (situ\u00e9e dans la Clinique Azur)", "formatted_address": "2984 boul. Taschereau Greenfield Park J4V2G9 Canada", "latitude": 45.4985938, "longitude": -73.4868406, "is_virtual": 0, "availabilities": null}
{"place_id": 113, "establishment": 1002, "name_fr": "Verdun - CLSC de Verdun", "name_en": "Verdun - CLSC de Verdun", "formatted_address": "400, rue de l'\u00c9glise Verdun H4G2M4 Canada", "latitude": 45.4625933, "longitude": -73.5693971, "is_virtual": 0, "availabilities": null}
{"place_id": 4224, "establishment": 64087, "name_fr": "Proxim - Pharmacie Judith Choquette", "name_en": "Proxim - Pharmacie Judith Choquette", "formatted_address": "2200, CH. CHAMBLY LONGUEUIL J4J3Z3 Canada", "latitude": 45.5266192, "longitude": -73.4756163, "is_virtual": 0, "availabilities": null}
{"place_id": 4319, "establishment": 63153, "name_fr": "Jean-Coutu - Pharmacie Proulx et Gagn\u00e9, Senc", "name_en": "Jean-Coutu - Pharmacie Proulx et Gagn\u00e9, Senc", "formatted_address": "3216, BOUL. TASCHEREAU, GREENFIELD PARK, J4V 2H3", "latitude": 45.49556, "longitude": -73.4834819, "is_virtual": 0, "availabilities": null}
{"place_id": 1366, "establishment": 1076, "name_fr": "GMF-R Collectif M\u00e9dica", "name_en": "GMF-R Collectif M\u00e9dica", "formatted_address": "5700, rue Saint-Zotique Est, bureau 102-104 Montr\u00e9al H1T3Y7 Canada", "latitude": 45.5800569, "longitude": -73.5692667, "is_virtual": 0, "availabilities": null}
{"place_id": 1368, "establishment": 1077, "name_fr": "Clinique m\u00e9dicale Mieux-\u00catre", "name_en": "Clinique m\u00e9dicale Mieux-\u00catre", "formatted_address": "7600, boulevard Viau, RP-336, Place Viau Montr\u00e9al H1S2P3 Canada", "latitude": 45.5748525, "longitude": -73.5924219, "is_virtual": 0, "availabilities": null}
{"place_id": 1123, "establishment": 8104, "name_fr": "Centre de pr\u00e9l\u00e8vements H\u00f4pital Santa Cabrini Ospedale", "name_en": "H\u00f4pital Santa Cabrini", "formatted_address": "5655 St-Zotique Est, local E1-127 Montr\u00e9al H1T1P7 Canada", "latitude": 45.5806388, "longitude": -73.5711852, "is_virtual": 0, "availabilities": null}
{"place_id": 112, "establishment": 1002, "name_fr": "Verdun - Centre communautaire Marcel-Giroux", "name_en": "Verdun - Centre communautaire Marcel-Giroux", "formatted_address": "4501, rue Bannantyne Montr\u00e9al H4G1E3 Canada", "latitude": 45.4594914, "longitude": -73.5765317, "is_virtual": 0, "availabilities": null}
{"place_id": 4359, "establishment": 63568, "name_fr": "Pharmaprix - Pharmacie Oana Bugnariu", "name_en": "Pharmaprix - Pharmacie Oana Bugnariu", "formatted_address": "3646, BOUL. TASCHEREAU GREENFIELD PARK J4V2H8 Canada", "latitude": 45.4893415, "longitude": -73.4746813, "is_virtual": 0, "availabilities": null}
{"place_id": 4334, "establishment": 63168, "name_fr": "Jean-Coutu - Pharmacie Jean-Michel Coutu et Tristan Gigu\u00e8re, Inc.", "name_en": "Jean-Coutu - Pharmacie Jean-Michel Coutu et Tristan Gigu\u00e8re, Inc.", "formatted_address": "2687, CH. CHAMBLY, LONGUEUIL, J4L 1M3", "latitude": 45.5249236, "longitude": -73.4657047, "is_virtual": 0, "availabilities": null}
{"place_id": 4292, "establishment": 64634, "name_fr": "Uniprix - Imad Hassan, Zyad Kassem Hassan et Patrick Abran pharmaciens Inc.", "name_en": "Uniprix - Imad Hassan, Zyad Kassem Hassan et Patrick Abran pharmaciens Inc.", "formatted_address": "2828, RUE DE LYON, LONGUEUIL, J4L 3R2", "latitude": 45.5147039, "longitude": -73.4651674, "is_virtual": 0, "availabilities": null}
{"place_id": 4248, "establishment": 64172, "name_fr": "Proximed - Pharmacie Yvan Lagac\u00e9, Pharmacien Inc.", "name_en": "Proximed - Pharmacie Yvan Lagac\u00e9, Pharmacien Inc.", "formatted_address": "505, ADONCOUR LOCAL 100, LONGUEUIL, J4G 2M6", "latitude": 45.5554366, "longitude": -73.4838613, "is_virtual": 0, "availabilities": null}
{"place_id": 4216, "establishment": 65073, "name_fr": "Ind\u00e9pendant - Pharmacie Dinh Hieu Luu, Pharmacien Inc", "name_en": "Ind\u00e9pendant - Pharmacie Dinh Hieu Luu, Pharmacien Inc", "formatted_address": "1150, KING GEORGE, LONGUEUIL, J4N 1P3", "latitude": 45.5392193, "longitude": -73.4675802, "is_virtual": 0, "availabilities": null}
{"place_id": 2032, "establishment": 60108, "name_fr": "Arena Bill Durnan", "name_en": "Arena Bill Durnan", "formatted_address": "4988 Rue V\u00e9zina, Montr\u00e9al, QC, H3W 1C1 Montr\u00e9al H3W1C1 Canada", "latitude": 45.4947688, "longitude": -73.644429, "is_virtual": 0, "availabilities": null}
{"place_id": 114, "establishment": 1002, "name_fr": "Ville-\u00c9mard - CLSC Ville-\u00c9mard", "name_en": "Ville-\u00c9mard - CLSC Ville-\u00c9mard", "formatted_address": "6161, rue Laurendeau Montr\u00e9al H4E3X6 Canada", "latitude": 45.4571819, "longitude": -73.5893115, "is_virtual": 0, "availabilities": null}
{"place_id": 108, "establishment": 1002, "name_fr": "\u00cele-des-S\u0153urs - Centre communautaire Elgar", "name_en": "\u00cele-des-S\u0153urs - Centre communautaire Elgar", "formatted_address": "260, rue Elgar Montr\u00e9al H3E1C9 Canada", "latitude": 45.4570719, "longitude": -73.5474366, "is_virtual": 0, "availabilities": null}
{"place_id": 102, "establishment": 8000, "name_fr": "CLSC de Ville-\u00c9mard", "name_en": "CLSC de Ville-\u00c9mard", "formatted_address": "6161 Rue Laurendeau Montr\u00e9al H4E3X6 Canada", "latitude": 45.4571819, "longitude": -73.5893115, "is_virtual": 0, "availabilities": null}
{"place_id": 4191, "establishment": 62607, "name_fr": "Familiprix - Fran\u00e7ois Grondin, Ricardo Remy, Mohamed Ghersi pharmaciens inc.", "name_en": "Familiprix - Fran\u00e7ois Grondin, Ricardo Remy, Mohamed Ghersi pharmaciens inc.", "formatted_address": "1750, BOUL. MARIE-VICTORIN, LONGUEUIL, J4G 1A5", "latitude": 45.5681259, "longitude": -73.4865476, "is_virtual": 0, "availabilities": null}
{"place_id": 4364, "establishment": 63572, "name_fr": "Pharmaprix - Pharmacie Diana Camelia Mirita", "name_en": "Pharmaprix - Pharmacie Diana Camelia Mirita", "formatted_address": "2788, CH. CHAMBLY, LONGUEUIL, J4L 1M9", "latitude": 45.521055, "longitude": -73.4624097, "is_virtual": 0, "availabilities": null}
{"place_id": 2034, "establishment": 60110, "name_fr": "Square Decarie", "name_en": "Square Decarie", "formatted_address": "6900, boulevard d\u00e9carie Montr\u00e9al H3X2T8 Canada", "latitude": 45.4909446, "longitude": -73.6507432, "is_virtual": 0, "availabilities": null}
{"place_id": 2016, "establishment": 60092, "name_fr": "Ar\u00e9na Martin-Brodeur", "name_en": "Ar\u00e9na Martin-Brodeur", "formatted_address": "5300 boul. Robert Saint-L\u00e9onard H1R1P9 Canada", "latitude": 45.5853269, "longitude": -73.5987611, "is_virtual": 0, "availabilities": null}
{"place_id": 1191, "establishment": 1062, "name_fr": "CLSC de Saint-L\u00e9onard", "name_en": "CLSC de Saint-L\u00e9onard", "formatted_address": "5540, rue Jarry Est Montr\u00e9al H1P1T9 Canada", "latitude": 45.5854918, "longitude": -73.5898939, "is_virtual": 0, "availabilities": null}
{"place_id": 6749, "establishment": 74624, "name_fr": "Pharmacie Baki, Bergeron & Saadi inc. - AstraZeneca", "name_en": "Pharmacie Baki, Bergeron & Saadi inc. - AstraZeneca", "formatted_address": "120-1615, , BOUL. JACQUES CARTIER EST LONGUEUIL J4M2X1 Canada", "latitude": 45.54082, "longitude": -73.4565529, "is_virtual": 0, "availabilities": null}
{"place_id": 6707, "establishment": 73151, "name_fr": "P. St-Onge, Pharmacien - AstraZeneca", "name_en": "P. St-Onge, Pharmacien - AstraZeneca", "formatted_address": "1750, JACQUES-CARTIER EST, LONGUEUIL, J4N 1C2", "latitude": 45.5433829, "longitude": -73.4550485, "is_virtual": 0, "availabilities": null}
{"place_id": 4333, "establishment": 63167, "name_fr": "Jean-Coutu - Pharmacie Jean-Michel Coutu et Tristan Gigu\u00e8re, Inc.", "name_en": "Jean-Coutu - Pharmacie Jean-Michel Coutu et Tristan Gigu\u00e8re, Inc.", "formatted_address": "3245 Chemin Chambly Longueuil J4L4K5 Canada", "latitude": 45.5168736, "longitude": -73.4499743, "is_virtual": 0, "availabilities": null}
{"place_id": 4283, "establishment": 64625, "name_fr": "Uniprix - Pharmacie Joyce Saliba", "name_en": "Uniprix - Pharmacie Joyce Saliba", "formatted_address": "2111, BOUL. LAPINI\u00c8RE BROSSARD J4W1L7 Canada", "latitude": 45.4762085, "longitude": -73.4748088, "is_virtual": 0, "availabilities": null}
{"place_id": 4282, "establishment": 64624, "name_fr": "Uniprix - Pharmacie Baki, Bergeron & Saadi", "name_en": "Uniprix - Pharmacie Mohamed Nadjib, Eric Bergeron et Sofiane Mohamed Saadi inc.", "formatted_address": "1615 BOUL JACQUES CARTIER E Longueuil J4M2X1 Canada", "latitude": 45.5408222, "longitude": -73.4565803, "is_virtual": 0, "availabilities": null}
{"place_id": 4199, "establishment": 62615, "name_fr": "Familiprix - Pharmacie Patrick Bagot inc", "name_en": "Familiprix - Pharmacie Patrick Bagot inc", "formatted_address": "100-3090, DE CHAMBLY LONGUEUIL J4L4N5 Canada", "latitude": 45.5173373, "longitude": -73.4549387, "is_virtual": 0, "availabilities": null}
{"place_id": 3392, "establishment": 62016, "name_fr": "Costco MARCH\u00c9-CENTRAL - Pharmacie Gr\u00e9goire Arakelian - Vaccin MODERNA", "name_en": "Costco MARCH\u00c9-CENTRAL - Pharmacie Gr\u00e9goire Arakelian - MODERNA Vaccine", "formatted_address": "1015, RUE DU MARCH\u00c9 CENTRAL MONTREAL H4N3J8 Canada", "latitude": 45.5364736, "longitude": -73.6602129, "is_virtual": 0, "availabilities": null}
{"place_id": 1364, "establishment": 1074, "name_fr": "Polyclinique Levasseur", "name_en": "Polyclinique Levasseur", "formatted_address": "8000, boulevard Langelier Montr\u00e9al H1P3K2 Canada", "latitude": 45.5942182, "longitude": -73.58128, "is_virtual": 0, "availabilities": null}
{"place_id": 1339, "establishment": 4014, "name_fr": "CLSC de Benny Farm", "name_en": "CLSC de Benny Farm", "formatted_address": "6484 Av de Monkland Montr\u00e9al H4B1H3 Canada", "latitude": 45.4655113, "longitude": -73.6315789, "is_virtual": 0, "availabilities": null}
{"place_id": 1067, "establishment": 8088, "name_fr": "CLSC Benny Farm", "name_en": "CLSC Benny Farm", "formatted_address": "6484 Av de Monkland Montr\u00e9al H4B1H3 Canada", "latitude": 45.4655113, "longitude": -73.6315789, "is_virtual": 0, "availabilities": null}
{"place_id": 2674, "establishment": 60083, "name_fr": "Clinique de vaccination de Saint-Laurent", "name_en": "Clinique de vaccination de Saint-Laurent", "formatted_address": "821, avenue Sainte Croix Montr\u00e9al H4L3X9 Canada", "latitude": 45.5147493, "longitude": -73.6745155, "is_virtual": 0, "availabilities": null}
{"place_id": 5900, "establishment": 70026, "name_fr": "Clinique de vaccination de St-Laurent - AstraZeneca", "name_en": "Clinique de vaccination de St-Laurent - AstraZeneca", "formatted_address": "821, Sainte-Croix Montr\u00e9al H4L3X9 Canada", "latitude": 45.5147493, "longitude": -73.6745155, "is_virtual": 0, "availabilities": null}
{"place_id": 4249, "establishment": 64173, "name_fr": "Proximed - Pharmacie Suzie Rousseau inc.", "name_en": "Proximed - Pharmacie Suzie Rousseau inc.", "formatted_address": "QRS-1200, BOUL. ROME BROSSARD J4W3H3 Canada", "latitude": 45.4577852, "longitude": -73.4905309, "is_virtual": 0, "availabilities": null}
{"place_id": 837, "establishment": 8012, "name_fr": "CLSC Samuel-de-Champlain", "name_en": "CLSC Samuel-de-Champlain", "formatted_address": "5811 boul. Taschereau Brossard J4Z1A6 Canada", "latitude": 45.4777504, "longitude": -73.4650901, "is_virtual": 0, "availabilities": null}
{"place_id": 4275, "establishment": 64617, "name_fr": "Uniprix - Anne Catherine Mc Duff, pharmacienne inc.", "name_en": "Uniprix - Anne Catherine Mc Duff, pharmacienne inc.", "formatted_address": "5375, BOUL. GRANDE-ALL\u00c9E, BROSSARD, J4Z 3G8", "latitude": 45.4779349, "longitude": -73.4489732, "is_virtual": 0, "availabilities": null}
{"place_id": 4253, "establishment": 64202, "name_fr": "Proximed - Hakem & Abdelmalak, pharmaciens inc. (Centre M\u00e9dical Mira)", "name_en": "Proximed - Hakem & Abdelmalak, pharmaciens inc.", "formatted_address": "1560, ROME BROSSARD J4W2T4 Canada", "latitude": 45.4571502, "longitude": -73.4787846, "is_virtual": 0, "availabilities": null}
{"place_id": 4252, "establishment": 64201, "name_fr": "Proximed - Pharmacie Ayman Hakem et Wasseem Abdelmalak inc.", "name_en": "Proximed - Pharmacie Ayman Hakem et Wasseem Abdelmalak inc.", "formatted_address": "100-6955, TASCHEREAU BROSSARD J4Z1A7 Canada", "latitude": 45.4670362, "longitude": -73.4661887, "is_virtual": 0, "availabilities": null}
{"place_id": 2673, "establishment": 60083, "name_fr": "Clinique de vaccination d'Ahuntsic", "name_en": "Clinique de vaccination d'Ahuntsic", "formatted_address": "800 Boul. Henri-Bourassa Ouest Montr\u00e9al H3L1P5 Canada", "latitude": 45.5416457, "longitude": -73.6756725, "is_virtual": 0, "availabilities": null}
{"place_id": 1158, "establishment": 8106, "name_fr": "Centre de pr\u00e9l\u00e8vements H\u00f4pital Fleury", "name_en": "Centre de pr\u00e9l\u00e8vements H\u00f4pital Fleury", "formatted_address": "2180, rue Fleury Est Local FRC-173 Montr\u00e9al  H2B1K3 Canada", "latitude": 45.5718874, "longitude": -73.6499032, "is_virtual": 0, "availabilities": null}
{"place_id": 1066, "establishment": 8088, "name_fr": "CLSC Ren\u00e9-Cassin", "name_en": "CLSC Ren\u00e9-Cassin", "formatted_address": "5800 Boul Cavendish C\u00f4te Saint-Luc H4W2T5 Canada", "latitude": 45.4758369, "longitude": -73.6662946, "is_virtual": 0, "availabilities": null}
{"place_id": 868, "establishment": 8033, "name_fr": "CLSC Ahuntsic", "name_en": "CLSC Ahuntsic", "formatted_address": "1165 Boul Henri-Bourassa E Montr\u00e9al H2C3K2 Canada", "latitude": 45.560648, "longitude": -73.665982, "is_virtual": 0, "availabilities": null}
{"place_id": 866, "establishment": 8031, "name_fr": "CLSC Saint-Laurent", "name_en": "CLSC Saint-Laurent", "formatted_address": "1055 Avenue Sainte-Croix Saint-Laurent H4L3Z2 Canada", "latitude": 45.5173133, "longitude": -73.6808297, "is_virtual": 0, "availabilities": null}
{"place_id": 3393, "establishment": 64182, "name_fr": "Proximed - Annik Theriault, pharmaciens Inc.-VACCIN MODERNA", "name_en": "Proximed - Annik Theriault, pharmaciens Inc.-VACCIN MODERNA", "formatted_address": "6363, RTE TRANSCANADIENNE STE 101 SAINT-LAURENT H4T1Z9 Canada", "latitude": 45.4956486, "longitude": -73.686538, "is_virtual": 0, "availabilities": null}
{"place_id": 3377, "establishment": 62014, "name_fr": "Costco ANJOU - Pharmacie Gr\u00e9goire Arakelian - Vaccin MODERNA", "name_en": "Costco ANJOU - Pharmacie Gr\u00e9goire Arakelian - MODERNA Vaccine", "formatted_address": "7373, RUE BOMBARDIER ANJOU H1J2V2 Canada", "latitude": 45.6092107, "longitude": -73.5853909, "is_virtual": 0, "availabilities": null}
{"place_id": 867, "establishment": 8032, "name_fr": "CLSC Bordeaux-Cartierville", "name_en": "CLSC Bordeaux-Cartierville", "formatted_address": "11822 Ave de Bois-de-Boulogne Montr\u00e9al H3M2X6 Canada", "latitude": 45.5409572, "longitude": -73.6903184, "is_virtual": 0, "availabilities": null}
{"place_id": 6273, "establishment": 73580, "name_fr": "H-N Wuong et S Kim Earb SENC - AstraZeneca", "name_en": "H-N Wuong et S Kim Earb SENC - AstraZeneca", "formatted_address": "8230, BOUL. TASCHEREAU STE 2, BROSSARD, J4X 1C2", "latitude": 45.4479012, "longitude": -73.4715982, "is_virtual": 0, "availabilities": null}
{"place_id": 6398, "establishment": 70026, "name_fr": "Clinique de vaccination de Montr\u00e9al-Nord - AstraZeneca", "name_en": "Clinique de vaccination de Montr\u00e9al-Nord - AstraZeneca", "formatted_address": "11 201 boulevard Lacordaire Montr\u00e9al-Nord H1G4J7 Canada", "latitude": 45.6046862, "longitude": -73.6177052, "is_virtual": 0, "availabilities": null}
{"place_id": 1189, "establishment": 1062, "name_fr": "CLSC Mercier-Est", "name_en": "CLSC Mercier-Est", "formatted_address": "9503, rue Sherbrooke Est Montr\u00e9al H1L6P2 Canada", "latitude": 45.6117754, "longitude": -73.527013, "is_virtual": 0, "availabilities": null}
{"place_id": 2676, "establishment": 60085, "name_fr": "Clinique de vaccination de Montr\u00e9al-Nord", "name_en": "Clinique de vaccination de Montr\u00e9al-Nord", "formatted_address": "11201, boulevard Lacordaire Montr\u00e9al-Nord H1G4J7 Canada", "latitude": 45.6046862, "longitude": -73.6177052, "is_virtual": 0, "availabilities": null}
{"place_id": 869, "establishment": 8034, "name_fr": "CLSC Montr\u00e9al-Nord", "name_en": "CLSC Montr\u00e9al-Nord", "formatted_address": "11441 Boulevard Lacordaire Montr\u00e9al H1G4J9 Canada", "latitude": 45.6071704, "longitude": -73.6199972, "is_virtual": 0, "availabilities": null}
{"place_id": 6196, "establishment": 72012, "name_fr": "Costco BROSSARD - Pharmacie Gr\u00e9goire Arakelian - Vaccin ASTRAZENECA", "name_en": "Costco BROSSARD - Pharmacie Gr\u00e9goire Arakelian - ASTRAZENECA Vaccine", "formatted_address": "9430, BOUL. TASCHEREAU BROSSARD J4X2W2 Canada", "latitude": 45.4341373, "longitude": -73.4797174, "is_virtual": 0, "availabilities": null}
{"place_id": 1211, "establishment": 1036, "name_fr": "Vaccination grippe 3546, boul. Concorde", "name_en": "Vaccination grippe 3546, boul. Concorde", "formatted_address": "3546, boulevard de la Concorde Est Laval H7E2C5 Canada", "latitude": 45.5944341, "longitude": -73.6613356, "is_virtual": 0, "availabilities": null}
{"place_id": 6094, "establishment": 73193, "name_fr": "Pharmacie Fr\u00e9d\u00e9rick Coussa inc. - AstraZeneca", "name_en": "Pharmacie Fr\u00e9d\u00e9rick Coussa inc. - AstraZeneca", "formatted_address": "160-9090, LEDUC, BROSSARD, J4Y 0E2", "latitude": 45.4464611, "longitude": -73.439358, "is_virtual": 0, "availabilities": null}
{"place_id": 6025, "establishment": 72608, "name_fr": "familiprix Boucherville - Pharmacie Ian-Philip Paul-Hus Inc. - AstraZeneca", "name_en": "familiprix Boucherville - Pharmacie Ian-Philip Paul-Hus Inc. - AstraZeneca", "formatted_address": "1000, BOUL. DE MONTARVILLE LOCAL 100 BOUCHERVILLE J4B5V9 Canada", "latitude": 45.590463, "longitude": -73.435744, "is_virtual": 0, "availabilities": null}
{"place_id": 5902, "establishment": 70028, "name_fr": "Centre sportif Dollard-St-Laurent - AstraZeneca", "name_en": "Centre sportif Dollard-St-Laurent - AstraZeneca", "formatted_address": "707, 75e Avenue Montr\u00e9al H8R3Y2 Canada", "latitude": 45.4221275, "longitude": -73.6290321, "is_virtual": 0, "availabilities": null}
{"place_id": 2026, "establishment": 60102, "name_fr": "LaSalle - Centre sportif Dollard-St-Laurent", "name_en": "LaSalle - Centre sportif Dollard-St-Laurent", "formatted_address": "707 75e Avenue LaSalle H8R3Y2 Canada", "latitude": 45.4221275, "longitude": -73.6290321, "is_virtual": 0, "availabilities": null}
{"place_id": 1348, "establishment": 8103, "name_fr": "Centre de pr\u00e9l\u00e8vement interne de l'h\u00f4pital Sacr\u00e9-Coeur de Montr\u00e9al (Non-disponible)", "name_en": "Centre de pr\u00e9l\u00e8vement interne de l'h\u00f4pital Sacr\u00e9-Coeur de Montr\u00e9al (Non-disponible)", "formatted_address": "5400 boul. Gouin ouest Montr\u00e9al H4J1C5 Canada", "latitude": 45.5325192, "longitude": -73.7141048, "is_virtual": 0, "availabilities": null}
{"place_id": 1122, "establishment": 8103, "name_fr": "Centre de pr\u00e9l\u00e8vements Complexe M\u00e9dical Nord-de-L' \u00eele", "name_en": "Centre de pr\u00e9l\u00e8vements Complexe M\u00e9dical Nord-de-L' \u00eele", "formatted_address": "5777 Boul. Gouin Ouest  Suite 150 (Rez-de-chauss\u00e9e) Montr\u00e9al H4J1E3 Canada", "latitude": 45.5325558, "longitude": -73.7201994, "is_virtual": 0, "availabilities": null}
{"place_id": 1089, "establishment": 8095, "name_fr": "Centre de pr\u00e9l\u00e8vement H\u00f4pital de LaSalle", "name_en": "LaSalle Hospital Test Center", "formatted_address": "8585 terasse Champlain, Entr\u00e9e principal \u2013 Local 5-0119 (Sous-Sol) Lasalle H8P1C1 Canada", "latitude": 45.4206242, "longitude": -73.6224959, "is_virtual": 0, "availabilities": null}
{"place_id": 928, "establishment": 8061, "name_fr": "CLSC des Seigneuries de Boucherville", "name_en": "CLSC des Seigneuries de Boucherville", "formatted_address": "160 Boulevard de Montarville Boucherville  J4B6S2 Canada", "latitude": 45.6028267, "longitude": -73.4523956, "is_virtual": 0, "availabilities": null}
{"place_id": 836, "establishment": 8011, "name_fr": "CLSC Saint-Hubert", "name_en": "CLSC Saint-Hubert", "formatted_address": "6800 boul. Cousineau Saint-Hubert J3Y8Z4 Canada", "latitude": 45.4927318, "longitude": -73.4032946, "is_virtual": 0, "availabilities": null}
{"place_id": 6105, "establishment": 72010, "name_fr": "Costco BOUCHERVILLE - Pharmacie Gr\u00e9goire Arakelian - Vaccin ASTRAZENECA", "name_en": "Costco BOUCHERVILLE - Pharmacie Gr\u00e9goire Arakelian - ASTRAZENECA Vaccine", "formatted_address": "635, CH. DE TOURAINE BOUCHERVILLE J4B5E4 Canada", "latitude": 45.5777388, "longitude": -73.4056513, "is_virtual": 0, "availabilities": null}
{"place_id": 4171, "establishment": 62010, "name_fr": "Costco BOUCHERVILLE - Pharmacie Gr\u00e9goire Arakelian - Vaccin MODERNA", "name_en": "Costco BOUCHERVILLE - Pharmacie Gr\u00e9goire Arakelian - MODERNA VACCINE", "formatted_address": "635, CH. DE TOURAINE BOUCHERVILLE J4B5E4 Canada", "latitude": 45.5777388, "longitude": -73.4056513, "is_virtual": 0, "availabilities": null}
{"place_id": 6135, "establishment": 72011, "name_fr": "Costco ST-HUBERT - Pharmacie Gr\u00e9goire Arakelian - Vaccin ASTRAZENECA", "name_en": "Costco ST-HUBERT - Pharmacie Gr\u00e9goire Arakelian - ASTRAZENECA Vaccine", "formatted_address": "1000, SAINT-BRUNO SAINT-BRUNO J3V6P4 Canada", "latitude": 45.5010361, "longitude": -73.3817923, "is_virtual": 0, "availabilities": null}
{"place_id": 1196, "establishment": 1062, "name_fr": "CLSC de Rivi\u00e8re-des-Prairies", "name_en": "CLSC de Rivi\u00e8re-des-Prairies", "formatted_address": "8655, boulevard Perras Montr\u00e9al H1E4M7 Canada", "latitude": 45.6446998, "longitude": -73.5860017, "is_virtual": 0, "availabilities": null}
{"place_id": 1088, "establishment": 8094, "name_fr": "Centre de pr\u00e9l\u00e8vement H\u00f4pital de Lachine", "name_en": "Lachine Hospital Test Center", "formatted_address": "650 16 Ave, local 2-C4 (2i\u00e8me \u00e9tage) Lachine H8S3N5 Canada", "latitude": 45.458874, "longitude": -73.7195904, "is_virtual": 0, "availabilities": null}
{"place_id": 6427, "establishment": 60153, "name_fr": "Vaccination \u00e0 l\u2019auto\u2212 Ouest-de-l\u2019\u00cele-de Montr\u00e9al", "name_en": "Drive-thru vaccination - Montreal West Island", "formatted_address": "12000 ave English, stationnement P11, A\u00e9roport de Montr\u00e9al Montr\u00e9al H9P1B4 Canada", "latitude": 45.4571409, "longitude": -73.73321, "is_virtual": 0, "availabilities": null}
{"place_id": 6264, "establishment": 73573, "name_fr": "Pharmaprix Delson-Pharmacie Maria Savin - AstraZeneca", "name_en": "Pharmacie Maria Savin - AstraZeneca", "formatted_address": "21, BOUL. GEORGES-GAGN\u00c9 DELSON J5B2E4 Canada", "latitude": 45.3844692, "longitude": -73.5496186, "is_virtual": 0, "availabilities": null}
{"place_id": 6408, "establishment": 72009, "name_fr": "Costco CANDIAC - Pharmacie Gr\u00e9goire Arakelian - Vaccin ASTRAZENECA", "name_en": "Costco CANDIAC - Pharmacie Gr\u00e9goire Arakelian - ASTRAZENECA Vaccine", "formatted_address": "60, RUE STRASBOURG CANDIAC J5R0B4 Canada", "latitude": 45.3706501, "longitude": -73.5177539, "is_virtual": 0, "availabilities": null}
{"place_id": 6204, "establishment": 74637, "name_fr": "Mathieu Janelle, pharmaciens inc - AstraZeneca", "name_en": "Mathieu Janelle, pharmaciens inc - AstraZeneca", "formatted_address": "113, SAINT-PIERRE101, SAINT-CONSTANT, J5A 0M3", "latitude": 45.375438, "longitude": -73.5680471, "is_virtual": 0, "availabilities": null}
{"place_id": 4057, "establishment": 62007, "name_fr": "Costco LAVAL - Pharmacie Gr\u00e9goire Arakelian - Vaccin MODERNA", "name_en": "Costco LAVAL - Pharmacie Gr\u00e9goire Arakelian - MODERNA VACCINE", "formatted_address": "2999, AUTOROUTE 440 LAVAL H7P5P4 Canada", "latitude": 45.5751563, "longitude": -73.75585, "is_virtual": 0, "availabilities": null}
{"place_id": 6533, "establishment": 8028, "name_fr": "D\u00e9pistage-CLSC de l'est-de-Montr\u00e9al", "name_en": "D\u00e9pistage-CLSC de l'est-de-Montr\u00e9al", "formatted_address": "13926 rue Notre-Dame Est Montr\u00e9al H1A1T7 Canada", "latitude": 45.666601, "longitude": -73.4935301, "is_virtual": 0, "availabilities": null}
{"place_id": 6318, "establishment": 70082, "name_fr": "M\u00e9ga Centre Notre-Dame - AstraZeneca", "name_en": "M\u00e9ga Centre Notre-Dame - AstraZeneca", "formatted_address": "2206, autoroute Chomedey Laval H7X4G8 Canada", "latitude": 45.5344062, "longitude": -73.789046, "is_virtual": 0, "availabilities": null}
{"place_id": 1194, "establishment": 1062, "name_fr": "CLSC de l'Est-de-Montr\u00e9al", "name_en": "CLSC de l'Est-de-Montr\u00e9al", "formatted_address": "13926, rue Notre-Dame Est Montr\u00e9al H1A1T5 Canada", "latitude": 45.666601, "longitude": -73.4935301, "is_virtual": 0, "availabilities": null}
{"place_id": 920, "establishment": 8055, "name_fr": "CLSC des Patriotes  Point de service Saint-Bruno", "name_en": "CLSC des Patriotes  Point de service Saint-Bruno", "formatted_address": "50 Chemin de la Rabastali\u00e8re Est, bureau 10 Saint-Bruno-de-Montarville  J3V2A5 Canada", "latitude": 45.5281177, "longitude": -73.3410107, "is_virtual": 0, "availabilities": null}
{"place_id": 5991, "establishment": 72594, "name_fr": "Familiprix Varennes - Pharmacie Ian-Philip Paul-Hus Inc. - AstraZeneca", "name_en": "Familiprix Varennes - Pharmacie Ian-Philip Paul-Hus Inc. - AstraZeneca", "formatted_address": "102-303, , BOUL. DE LA MARINE VARENNES J3X2G6 Canada", "latitude": 45.6572282, "longitude": -73.4226909, "is_virtual": 0, "availabilities": null}
{"place_id": 927, "establishment": 8060, "name_fr": "CLSC des Seigneuries de Sainte-Julie", "name_en": "CLSC des Seigneuries de Sainte-Julie", "formatted_address": "461 Boulevard Saint-Joseph, bureau 112 Sainte-Julie J3E1W8 Canada", "latitude": 45.5928117, "longitude": -73.3365713, "is_virtual": 0, "availabilities": null}
{"place_id": 6759, "establishment": 73195, "name_fr": "Pharmacie Marie-Christine Charest inc. - AstraZeneca", "name_en": "Pharmacie Marie-Christine Charest inc. - AstraZeneca", "formatted_address": "2020, BOUL. REN\u00c9 GAULTIER, VARENNES, J3X 1N9", "latitude": 45.6782355, "longitude": -73.4357452, "is_virtual": 0, "availabilities": null}
{"place_id": 929, "establishment": 8062, "name_fr": "Centre de pr\u00e9l\u00e8vements de Varennes", "name_en": "Centre de pr\u00e9l\u00e8vements de Varennes", "formatted_address": "2082 route Marie-Victorin Varennes J3X2C7 Canada", "latitude": 45.6796308, "longitude": -73.4382363, "is_virtual": 0, "availabilities": null}
{"place_id": 7436, "establishment": 60121, "name_fr": "Centre vaccination Covid - Clinique sp\u00e9ciale DI-TSA - Ch\u00e2teauguay", "name_en": "Covid vaccination center - Special clinic DI-TSA - Ch\u00e2teauguay", "formatted_address": "1200 rue Ford Ch\u00e2teauguay J6J4Z2 Canada", "latitude": 45.3466809, "longitude": -73.6913997, "is_virtual": 0, "availabilities": null}
{"place_id": 7428, "establishment": 60070, "name_fr": "CLSC Lamater", "name_en": "CLSC Lamater", "formatted_address": "1317 Boulevard des Seigneurs Terrebonne J6W5B1 Canada", "latitude": 45.6997025, "longitude": -73.6585627, "is_virtual": 0, "availabilities": null}
{"place_id": 6384, "establishment": 70091, "name_fr": "Pointe-Claire - Ar\u00e9na Bob Birnie - AstraZeneca", "name_en": "Pointe-Claire - Ar\u00e9na Bob Birnie - AstraZeneca", "formatted_address": "58 Avenue Maywood, Pointe-Claire, H9R0A7", "latitude": 45.4491581, "longitude": -73.8141583, "is_virtual": 0, "availabilities": null}
{"place_id": 6321, "establishment": 72696, "name_fr": "Pharmacie Julie Lauzon, Pharmacienne Inc - AstraZeneca", "name_en": "Pharmacie Julie Lauzon, Pharmacienne Inc - AstraZeneca", "formatted_address": "1415, BOUL. GRANDE-ALL\u00c9E, TERREBONNE, J6W 5M9", "latitude": 45.7076118, "longitude": -73.6229154, "is_virtual": 0, "availabilities": null}
{"place_id": 6806, "establishment": 73107, "name_fr": "Pharmacie Marie-Claude Favreau Inc. - AstraZeneca", "name_en": "Pharmacie Marie-Claude Favreau Inc. - AstraZeneca", "formatted_address": "83 Mont\u00e9e Gagnon, BOIS-DES-FILION, J6Z 4C4", "latitude": 45.6665647, "longitude": -73.762327, "is_virtual": 0, "availabilities": null}
{"place_id": 6762, "establishment": 73192, "name_fr": "Pharmacie Pelletier et Dodelet S.E.N.C. - AstraZeneca", "name_en": "Pharmacie Pelletier et Dodelet S.E.N.C. - AstraZeneca", "formatted_address": "520, RUE PRINCIPALE LOCAL 1, SAINT-AMABLE, J0L 1N0", "latitude": 45.6130057, "longitude": -73.3060743, "is_virtual": 0, "availabilities": null}
{"place_id": 6194, "establishment": 72005, "name_fr": "Costco TERREBONNE - Pharmacie Gr\u00e9goire Arakelian - Vaccin ASTRAZENECA", "name_en": "Costco TERREBONNE - Pharmacie Gr\u00e9goire Arakelian - ASTRAZENECA Vaccine", "formatted_address": "870, MONT\u00c9E DES PIONNIERS TERREBONNE J6V1N9 Canada", "latitude": 45.7216896, "longitude": -73.5050719, "is_virtual": 0, "availabilities": null}
{"place_id": 3880, "establishment": 62005, "name_fr": "Costco TERREBONNE - Pharmacie Gr\u00e9goire Arakelian - Vaccin MODERNA", "name_en": "Costco TERREBONNE - Pharmacie Gr\u00e9goire Arakelian - MODERNA VACCINE", "formatted_address": "870, MONT\u00c9E DES PIONNIERS TERREBONNE J6V1N9 Canada", "latitude": 45.7216896, "longitude": -73.5050719, "is_virtual": 0, "availabilities": null}
{"place_id": 2161, "establishment": 5500, "name_fr": "CLSC PIERREFONDS-SANT\u00c9 VOYAGE ET VACCINS PAYANTS", "name_en": "CLSC PIERREFONDS- THE TRAVEL HEALTH CLINIC- PAYED VACCINATION", "formatted_address": "B-13800 Boul. Gouin Ouest Pierrefonds H8Z3H6 Canada", "latitude": 45.4971178, "longitude": -73.8482881, "is_virtual": 0, "availabilities": null}
{"place_id": 1090, "establishment": 8096, "name_fr": "Centre de pr\u00e9l\u00e8vement H\u00f4pital g\u00e9n\u00e9ral du Lakeshore (RC Locale 1409)", "name_en": "Lakeshore General Hospital Test Center", "formatted_address": "160, avenue Stillview Pointe-Claire H9R2Y2 Canada", "latitude": 45.4486514, "longitude": -73.8333573, "is_virtual": 0, "availabilities": null}
{"place_id": 1073, "establishment": 8090, "name_fr": "CLSC Pierrefonds", "name_en": "CLSC Pierrefonds", "formatted_address": "13800 Boul Gouin Ouest Pierrefonds H8Z3H6 Canada", "latitude": 45.4971178, "longitude": -73.8482881, "is_virtual": 0, "availabilities": null}
{"place_id": 6935, "establishment": 60070, "name_fr": "RI- Lanaudiere", "name_en": "RI- Lanaudiere", "formatted_address": "1501 Yves vlais Terrebonne J6V1P7 Canada", "latitude": 45.727882, "longitude": -73.5021336, "is_virtual": 0, "availabilities": null}
{"place_id": 6693, "establishment": 73087, "name_fr": "Ian Di Maulo, David Kenny et Anne-Marie C\u00f4t\u00e9 pharmaciens SENC - AstraZeneca", "name_en": "Ian Di Maulo, David Kenny et Anne-Marie C\u00f4t\u00e9 pharmaciens SENC - AstraZeneca", "formatted_address": "1125, MT\u00c9E DES PIONNIERS, TERREBONNE, J6V 0E1", "latitude": 45.7270529, "longitude": -73.5093543, "is_virtual": 0, "availabilities": null}
{"place_id": 6824, "establishment": 73110, "name_fr": "Pharmacie Marc Pelchat et Marie-Claude Favreau inc - AstraZeneca", "name_en": "Pharmacie Marc Pelchat et Marie-Claude Favreau inc - AstraZeneca", "formatted_address": "10 Boulevard des Ch\u00e2teaux, Blainville, J7B 1Z5", "latitude": 45.6524606, "longitude": -73.8034258, "is_virtual": 0, "availabilities": null}
{"place_id": 6607, "establishment": 73091, "name_fr": "Jean-Coutu - Pharmacie Martin D'amours et Marc Leclerc inc. - AstraZeneca - AstraZeneca", "name_en": "Jean-Coutu - Pharmacie Martin D'amours et Marc Leclerc inc. - AstraZeneca - AstraZeneca", "formatted_address": "185 Mont\u00e9e Masson, Mascouche, J7K 3B4", "latitude": 45.7256097, "longitude": -73.6180594, "is_virtual": 0, "availabilities": null}
{"place_id": 6373, "establishment": 71022, "name_fr": "Acc\u00e8s-Pharma/Wal-Mart Pharmacie Andrew Kassis et Antoine Nassane Inc. - AstraZeneca", "name_en": "Acc\u00e8s-Pharma/Wal-Mart Pharmacie Andrew Kassis et Antoine Nassane Inc. - AstraZeneca", "formatted_address": "401, LABELLE ROSEMERE J7A3T2 Canada", "latitude": 45.6306061, "longitude": -73.8172305, "is_virtual": 0, "availabilities": null}
{"place_id": 1773, "establishment": 8120, "name_fr": "H\u00f4pital Pierre-Le Gardeur (Laboratoire)", "name_en": "H\u00f4pital Pierre-Le Gardeur (Laboratoire)", "formatted_address": "911 Mont\u00e9e des Pionniers Terrebonne J6V2H2 Canada", "latitude": 45.7243142, "longitude": -73.5108708, "is_virtual": 0, "availabilities": null}
{"place_id": 6371, "establishment": 73115, "name_fr": "Patrice Mayrand et Manon Berrouard Pharmaciens Inc - AstraZeneca", "name_en": "Patrice Mayrand et Manon Berrouard Pharmaciens Inc - AstraZeneca", "formatted_address": "875, GRANDE ALLEE, BOISBRIAND, J7G 1W6", "latitude": 45.6117133, "longitude": -73.8395169, "is_virtual": 0, "availabilities": null}
{"place_id": 6291, "establishment": 73095, "name_fr": "Pharmacie Brigitte Marchand et Catherine Roy Inc.* - AstraZeneca", "name_en": "Pharmacie Brigitte Marchand et Catherine Roy Inc.* - AstraZeneca", "formatted_address": "2229 Chemin Gascon Terrebonne J6X4H3 Canada", "latitude": 45.7250297, "longitude": -73.6659147, "is_virtual": 0, "availabilities": null}
{"place_id": 6093, "establishment": 73095, "name_fr": "Pharmacie Brigitte Marchand et Catherine Roy Inc. - AstraZeneca", "name_en": "Pharmacie Brigitte Marchand et Catherine Roy Inc. - AstraZeneca", "formatted_address": "2225, CH. GASCON TERREBONNE J6X4H3 Canada", "latitude": 45.7237202, "longitude": -73.6640188, "is_virtual": 0, "availabilities": null}
{"place_id": 5214, "establishment": 63095, "name_fr": "Pharmacie Brigitte Marchand et Catherine Roy Inc.*", "name_en": "Pharmacie Brigitte Marchand et Catherine Roy Inc.*", "formatted_address": "2229 Chemin Gascon Terrebonne J6X4H3 Canada", "latitude": 45.7250297, "longitude": -73.6659147, "is_virtual": 0, "availabilities": null}
{"place_id": 7427, "establishment": 60075, "name_fr": "CLSC Meilleur - Lacombe", "name_en": "CLSC Meilleur - Lacombe", "formatted_address": "193, boulevard Lacombe Repentigny J5Z3C4 Canada", "latitude": 45.7448512, "longitude": -73.4797454, "is_virtual": 0, "availabilities": null}
{"place_id": 6608, "establishment": 73086, "name_fr": "Jean-Coutu - Pharmacie Martin D\u2019Amours Inc. - AstraZeneca", "name_en": "Jean-Coutu - Pharmacie Martin D\u2019Amours Inc. - AstraZeneca", "formatted_address": "3131 Boulevard de Mascouche Mascouche J7K3B7 Canada", "latitude": 45.7432921, "longitude": -73.6001439, "is_virtual": 0, "availabilities": null}
{"place_id": 6399, "establishment": 60121, "name_fr": "Centre vaccination Covid - H\u00f4pital Anna-Laberge", "name_en": "Covid vaccination center - H\u00f4pital Anna-Laberge", "formatted_address": "200 Boulevard Brisebois Ch\u00e2teauguay J6K4W8 Canada", "latitude": 45.3461287, "longitude": -73.7637707, "is_virtual": 0, "availabilities": null}
{"place_id": 6180, "establishment": 72006, "name_fr": "Costco BOISBRIAND - Pharmacie Gr\u00e9goire Arakelian - AstraZeneca", "name_en": "Costco BOISBRIAND - Pharmacie Gr\u00e9goire Arakelian - AstraZeneca", "formatted_address": "3600, DES GRANDES-TOURELLES BOISBRIAND J7H0A1 Canada", "latitude": 45.6314274, "longitude": -73.8513583, "is_virtual": 0, "availabilities": null}
{"place_id": 6115, "establishment": 74609, "name_fr": "Pharmacie Marc Laroche Inc. - AstraZeneca", "name_en": "Pharmacie Marc Laroche Inc. - AstraZeneca", "formatted_address": "569, BOUL. RICHELIEU, RICHELIEU, J3L 4Y3", "latitude": 45.443296, "longitude": -73.2474548, "is_virtual": 0, "availabilities": null}
{"place_id": 6692, "establishment": 73082, "name_fr": "Pharmacie Ian Di Maulo et David Kenny, Pharmaciens Inc. - AstraZeneca", "name_en": "Pharmacie Ian Di Maulo et David Kenny, Pharmaciens Inc. - AstraZeneca", "formatted_address": "100, BOUL. BRIEN, REPENTIGNY, J6A 5N4", "latitude": 45.742263, "longitude": -73.4586568, "is_virtual": 0, "availabilities": null}
{"place_id": 830, "establishment": 8006, "name_fr": "CLSC du Richelieu", "name_en": "CLSC du Richelieu", "formatted_address": "300 Chemin de Marieville Richelieu J3L3V8 Canada", "latitude": 45.4378213, "longitude": -73.2449616, "is_virtual": 0, "availabilities": null}
{"place_id": 6766, "establishment": 74572, "name_fr": "Matthieu Leduc, Martin Halley, Julien Bolduc, pharmaciens inc.. - AstraZeneca", "name_en": "Matthieu Leduc, Martin Halley, Julien Bolduc, pharmaciens inc.. - AstraZeneca", "formatted_address": "75, RUE GRIGNON, SAINT-EUSTACHE, J7P 4J2", "latitude": 45.5727634, "longitude": -73.9090497, "is_virtual": 0, "availabilities": null}
{"place_id": 6175, "establishment": 74632, "name_fr": "Pierre-Luc Boivin, Andr\u00e9a H\u00e9bert-Bernier et \u00c9ric Lucier, pharmaciens inc. - AstraZeneca", "name_en": "Pierre-Luc Boivin, Andr\u00e9a H\u00e9bert-Bernier et \u00c9ric Lucier, pharmaciens inc. - AstraZeneca", "formatted_address": "863, YVON-L'HEUREUX, BELOEIL, J3G 6P5", "latitude": 45.5786696, "longitude": -73.2148988, "is_virtual": 0, "availabilities": null}
{"place_id": 5978, "establishment": 72733, "name_fr": "Mailloux Joanne, Pharmacienne - AstraZeneca", "name_en": "Mailloux Joanne, Pharmacienne - AstraZeneca", "formatted_address": "300, BOUL. SAINT-LUC, LOCAL 20, SAINT-JEAN-SUR-RICHELIEU, J2W 2A3", "latitude": 45.355845, "longitude": -73.2984953, "is_virtual": 0, "availabilities": null}
{"place_id": 6322, "establishment": 73165, "name_fr": "Claude et Nathalie Lemonde, pharmaciens - AstraZeneca", "name_en": "Claude et Nathalie Lemonde, pharmaciens - AstraZeneca", "formatted_address": "350, BOUL. LAURIER, BELOEIL, J3G 4G7", "latitude": 45.5674396, "longitude": -73.2028096, "is_virtual": 0, "availabilities": null}
{"place_id": 6176, "establishment": 74633, "name_fr": "Pharmacie Pierre-Luc Boivin, \u00c9ric Lucier et Andr\u00e9a H\u00e9bert-Bernier inc. - AstraZeneca", "name_en": "Pharmacie Pierre-Luc Boivin, \u00c9ric Lucier et Andr\u00e9a H\u00e9bert-Bernier inc. - AstraZeneca", "formatted_address": "466, SIR-WILFRID-LAURIER, MONT-SAINT-HILAIRE, J3H 6K3", "latitude": 45.5658253, "longitude": -73.1825484, "is_virtual": 0, "availabilities": null}
{"place_id": 6002, "establishment": 72787, "name_fr": "Pharmacie Dimitrios-Jimmy Retalis Inc. - AstraZeneca", "name_en": "Pharmacie Dimitrios-Jimmy Retalis Inc. - AstraZeneca", "formatted_address": "142, OMER-MARCIL, SAINT-JEAN-SUR-RICHELIEU, J2W 2X2", "latitude": 45.3328148, "longitude": -73.2949252, "is_virtual": 0, "availabilities": null}
{"place_id": 921, "establishment": 8054, "name_fr": " CLSC des Patriotes", "name_en": " CLSC des Patriotes", "formatted_address": "300 boulevard Serge-P\u00e9pin Beloeil J3G0B8 Canada", "latitude": 45.5909489, "longitude": -73.2000399, "is_virtual": 0, "availabilities": null}
{"place_id": 6808, "establishment": 73109, "name_fr": "Marie-Claude Favreau et Simon Favreau-Pelchat pharmaciens Inc. - AstraZeneca", "name_en": "Marie-Claude Favreau et Simon Favreau-Pelchat pharmaciens Inc. - AstraZeneca", "formatted_address": "1083 Boulevard du Cur\u00e9-Labelle, BLAINVILLE, J7C 2M2", "latitude": 45.6766731, "longitude": -73.8863607, "is_virtual": 0, "availabilities": null}
{"place_id": 829, "establishment": 8005, "name_fr": "CLSC de la Vall\u00e9e-des-Forts", "name_en": "CLSC de la Vall\u00e9e-des-Forts", "formatted_address": "978 Boulevard du S\u00e9minaire N Saint-Jean-sur-Richelieu J3A1E5 Canada", "latitude": 45.335664, "longitude": -73.2693256, "is_virtual": 0, "availabilities": null}
{"place_id": 6821, "establishment": 60075, "name_fr": "CHSLD Emile McDuff", "name_en": "CHSLD Emile McDuff", "formatted_address": "1440, boul iberville repentigny J5Y3W9 Canada", "latitude": 45.7883507, "longitude": -73.407812, "is_virtual": 0, "availabilities": null}
{"place_id": 930, "establishment": 8063, "name_fr": "CLSC des Seigneuries - Verch\u00e8res", "name_en": "Centre de pr\u00e9l\u00e8vements - CLSC des Seigneuries", "formatted_address": "90, Mont\u00e9e Calixa-Lavall\u00e9e Verch\u00e8res J0L2R0 Canada", "latitude": 45.7727882, "longitude": -73.3516556, "is_virtual": 0, "availabilities": null}
{"place_id": 6134, "establishment": 74697, "name_fr": "Vincent Nadeau pharmacien Inc. - AstraZeneca", "name_en": "Vincent Nadeau pharmacien Inc. - AstraZeneca", "formatted_address": "3942, CH. D'OKA, SAINT-JOSEPH-DU-LAC, J0N 1M0", "latitude": 45.5075837, "longitude": -73.9834039, "is_virtual": 0, "availabilities": null}
{"place_id": 5977, "establishment": 75029, "name_fr": "Airix.ca - Pharmacie Sami Soltan \u00e0 Cit\u00e9 Mirabel", "name_en": "Airix.ca - Pharmacie Cit\u00e9 Mirabel - AstraZeneca", "formatted_address": "11800, DE CHAUMONT MIRABEL J7J0T8 Canada", "latitude": 45.6784074, "longitude": -73.923876, "is_virtual": 0, "availabilities": null}
{"place_id": 6519, "establishment": 73102, "name_fr": "Pharmacie St\u00e9phane Boily Phcien Inc. - AstraZeneca", "name_en": "Pharmacie St\u00e9phane Boily Phcien Inc. - AstraZeneca", "formatted_address": "440, RUE SAINTE-ANNE Ste-Anne-des-plaines J5N3R1 Canada", "latitude": 45.7662822, "longitude": -73.8130648, "is_virtual": 0, "availabilities": null}
{"place_id": 6694, "establishment": 71537, "name_fr": "Pharmacie Marie-Claude Cassivi, Phcienne Inc - AstraZeneca", "name_en": "Pharmacie Marie-Claude Cassivi, Phcienne Inc - AstraZeneca", "formatted_address": "15637, RUE DE SAINT-AUGUSTIN, MIRABEL, J7N 1X6", "latitude": 45.6279553, "longitude": -73.9712864, "is_virtual": 0, "availabilities": null}
{"place_id": 6208, "establishment": 74217, "name_fr": "Lucie Senneville et Mathieu Gaudreau pharmaciens inc. - AstraZeneca", "name_en": "Lucie Senneville et Mathieu Gaudreau pharmaciens inc. - AstraZeneca", "formatted_address": "1-305, SAINT-JOSEPH, SAINTE-MARTINE, J0S 1V0", "latitude": 45.255823, "longitude": -73.796711, "is_virtual": 0, "availabilities": null}
{"place_id": 6769, "establishment": 73096, "name_fr": "Pharmacie Corinne Beaupr\u00e9 et Rana Aoun inc. - AstraZeneca", "name_en": "Pharmacie Corinne Beaupr\u00e9 et Rana Aoun inc. - AstraZeneca", "formatted_address": "800B, MT\u00c9E DE SAINT-SULPICE, LOCAL 101, L'ASSOMPTION, J5W 0M6", "latitude": 45.8370581, "longitude": -73.4129263, "is_virtual": 0, "availabilities": null}
{"place_id": 6149, "establishment": 74095, "name_fr": "Vincent Roy pharmacien Inc. - AstraZeneca", "name_en": "Vincent Roy pharmacien Inc. - AstraZeneca", "formatted_address": "1042, SAINT-SIMON, SAINTE-MADELEINE, J0H 1S0", "latitude": 45.5938027, "longitude": -73.0906366, "is_virtual": 0, "availabilities": null}
{"place_id": 6577, "establishment": 74558, "name_fr": "Pharmacies Fran\u00e7ois Dupuis, Pharmacien Inc. - AstraZeneca", "name_en": "Pharmacies Fran\u00e7ois Dupuis, Pharmacien Inc. - AstraZeneca", "formatted_address": "24 Mont\u00e9e R\u00e9mi Henri, Saint-Roch-de-l'Achigan, J0K 3H0", "latitude": 45.8610049, "longitude": -73.5960909, "is_virtual": 0, "availabilities": null}
{"place_id": 6350, "establishment": 73185, "name_fr": "Marie-Jos\u00e9e Mercier et Martine B\u00e9dard pharmaciennes inc. - AstraZeneca", "name_en": "Marie-Jos\u00e9e Mercier et Martine B\u00e9dard pharmaciennes inc. - AstraZeneca", "formatted_address": "253, BOUL. HARWOOD, VAUDREUIL-DORION, J7V 1Y3", "latitude": 45.3816566, "longitude": -74.0151083, "is_virtual": 0, "availabilities": null}
{"place_id": 6154, "establishment": 72015, "name_fr": "Costco VAUDREUIL - Pharmacie Gr\u00e9goire Arakelian - Vaccin ASTRAZENECA", "name_en": "Costco VAUDREUIL - Pharmacie Gr\u00e9goire Arakelian - ASTRAZENECA Vaccine", "formatted_address": "22400, CHEMIN DUMBERRY VAUDREUIL-DORION J7V0M8 Canada", "latitude": 45.4147461, "longitude": -74.0374971, "is_virtual": 0, "availabilities": null}
{"place_id": 7419, "establishment": 60073, "name_fr": "\u00c9cole  PavillonSir Wilfrid Laurier", "name_en": "\u00c9cole Sir Wilfrid Laurier", "formatted_address": "265, 16e ave St Lin Laurentides J5M2X8 Canada", "latitude": 45.8567492, "longitude": -73.7539969, "is_virtual": 0, "availabilities": null}
{"place_id": 6224, "establishment": 71608, "name_fr": "Pharmacie Emmanuelle Laflamme - AstraZeneca", "name_en": "Pharmacie Emmanuelle Laflamme - AstraZeneca", "formatted_address": "3051, DE LA GARE, VAUDREUIL-DORION, J7V 0H1", "latitude": 45.3964432, "longitude": -74.0541203, "is_virtual": 0, "availabilities": null}
{"place_id": 7437, "establishment": 60073, "name_fr": "CLSC ST-Esprit", "name_en": "CLSC ST-Esprit", "formatted_address": "110 Rue Saint Isidore Saint-Esprit J0K2L0 Canada", "latitude": 45.9047878, "longitude": -73.6646291, "is_virtual": 0, "availabilities": null}
{"place_id": 6225, "establishment": 71539, "name_fr": "Pharmacie G. Fleury, AM. Fontaine et M. Lajoie Inc - AstraZeneca", "name_en": "Pharmacie G. Fleury, AM. Fontaine et M. Lajoie Inc - AstraZeneca", "formatted_address": "500, BOUL. DES LAURENTIDES, SAINT-JEROME, J7Z 4M2", "latitude": 45.7622485, "longitude": -73.9944573, "is_virtual": 0, "availabilities": null}
{"place_id": 6525, "establishment": 73164, "name_fr": "Pharmacie Yanick Marchand, Pharmacien Inc. - AstraZeneca", "name_en": "Pharmacie Yanick Marchand, Pharmacien Inc. - AstraZeneca", "formatted_address": "1398 Rue Notre Dame, SAINT-CESAIRE, J0L 1T0", "latitude": 45.4086974, "longitude": -73.0023265, "is_virtual": 0, "availabilities": null}
{"place_id": 6418, "establishment": 74093, "name_fr": "Pharmacie Karine Valiquette Inc.  - AstraZeneca", "name_en": "Pharmacie Karine Valiquette Inc.  - AstraZeneca", "formatted_address": "210 Chemin Saint-F\u00e9r\u00e9ol Les C\u00e8dres J7T1J3 Canada", "latitude": 45.3122958, "longitude": -74.0608021, "is_virtual": 0, "availabilities": null}
{"place_id": 832, "establishment": 8008, "name_fr": "CLSC de Saint-C\u00e9saire", "name_en": "CLSC de Saint-C\u00e9saire", "formatted_address": "1394 rue Notre-Dame Saint-C\u00e9saire J0L1T0 Canada", "latitude": 45.4087457, "longitude": -73.0025147, "is_virtual": 0, "availabilities": null}
{"place_id": 7430, "establishment": 60071, "name_fr": "CLSC Lavaltrie", "name_en": "CLSC Lavaltrie", "formatted_address": "203-1400 Rue Notre-Dame  Lavaltrie J5T1M6 Canada", "latitude": 45.8851096, "longitude": -73.2761659, "is_virtual": 0, "availabilities": null}
{"place_id": 6696, "establishment": 74216, "name_fr": "Claude Villeneuve et Francis Prud'homme pharmaciens Inc. - AstraZeneca", "name_en": "Claude Villeneuve et Francis Prud'homme pharmaciens Inc. - AstraZeneca", "formatted_address": "29, RUE DU PONT LOCAL 100, SAINT-LOUIS-DE-GONZAGUE, J0S 1T0", "latitude": 45.2159426, "longitude": -73.9936712, "is_virtual": 0, "availabilities": null}
{"place_id": 5922, "establishment": 75066, "name_fr": "Pharmaciens Nicole Lussier & Yves Bigaouette Inc. - AstraZeneca", "name_en": "Pharmaciens Nicole Lussier & Yves Bigaouette Inc. - AstraZeneca", "formatted_address": "2499, BOUL. CASAVANT OUEST SAINT-HYACINTHE J2S7E5 Canada", "latitude": 45.6328761, "longitude": -72.9683223, "is_virtual": 0, "availabilities": null}
{"place_id": 6065, "establishment": 73160, "name_fr": "Pharmacie K. Boivin et F. Daigneault - AstraZeneca (Clinique Sant\u00e9 des Galeries)", "name_en": "Pharmacie K. Boivin et F. Daigneault - AstraZeneca", "formatted_address": "970, BOUL. CASAVANT O. SAINT-HYACINTHE J2S0H4 Canada", "latitude": 45.638941, "longitude": -72.963021, "is_virtual": 0, "availabilities": null}
{"place_id": 917, "establishment": 8051, "name_fr": "CLSC de Maskoutains", "name_en": "CLSC des Maskoutains", "formatted_address": "1015 rue Gauthier St-Hyacinthe J2S8T2 Canada", "latitude": 45.6366065, "longitude": -72.9602428, "is_virtual": 0, "availabilities": null}
{"place_id": 4326, "establishment": 63160, "name_fr": "Jean-Coutu - Pharmacie K. Boivin et F. Daigneault (Clinique Sant\u00e9 des Galeries)", "name_en": "Jean-Coutu - Pharmacie K. Boivin et F. Daigneault", "formatted_address": "970, BOUL. CASAVANT O. SAINT-HYACINTHE J2S0H4 Canada", "latitude": 45.638941, "longitude": -72.963021, "is_virtual": 0, "availabilities": null}
{"place_id": 833, "establishment": 8009, "name_fr": "Point de chute de Lacolle ", "name_en": "Point de chute de Lacolle ", "formatted_address": "10 rue Ste-Marie Lacolle J0J1J0 Canada", "latitude": 45.0820616, "longitude": -73.3710177, "is_virtual": 0, "availabilities": null}
{"place_id": 831, "establishment": 8007, "name_fr": "CLSC de Henryville", "name_en": "CLSC de Henryville", "formatted_address": "125 rue de l'\u00c9glise Henryville J0J1E0 Canada", "latitude": 45.1388908, "longitude": -73.192435, "is_virtual": 0, "availabilities": null}
{"place_id": 1056, "establishment": 8087, "name_fr": "CLSC de Farnham", "name_en": "CLSC de Farnham", "formatted_address": "660, rue Saint-Paul Farnham J2N3B9 Canada", "latitude": 45.2857306, "longitude": -72.9733547, "is_virtual": 0, "availabilities": null}
{"place_id": 7435, "establishment": 60124, "name_fr": "Centre vaccination Covid - Clinique sp\u00e9ciale DI-TSA - Valleyfield", "name_en": "Covid vaccination center - Special clinic DI-TSA - Valleyfield", "formatted_address": "310 rue Salaberry Ouest Valleyfield J6T2J8 Canada", "latitude": 45.2505214, "longitude": -74.1343253, "is_virtual": 0, "availabilities": null}
{"place_id": 6397, "establishment": 60124, "name_fr": "Centre vaccination Covid - H\u00f4pital du Suro\u00eet", "name_en": "Covid vaccination center - H\u00f4pital du Suro\u00eet", "formatted_address": "150 Rue St-Thomas Salaberry-de-Valleyfield J6T6C1 Canada", "latitude": 45.2509697, "longitude": -74.1310097, "is_virtual": 0, "availabilities": null}
{"place_id": 6395, "establishment": 60124, "name_fr": "Centre vaccination Covid - Barries", "name_en": "Covid vaccination center - Barries", "formatted_address": "28 Rue Gales Ormstown J0S1K0 Canada", "latitude": 45.1263093, "longitude": -73.9998416, "is_virtual": 0, "availabilities": null}
{"place_id": 7424, "establishment": 60074, "name_fr": "CLSC Joliette", "name_en": "CLSC Joliette", "formatted_address": "380, Boulevard Base De Roc Joliette J6E9J6 Canada", "latitude": 46.0190305, "longitude": -73.43689, "is_virtual": 0, "availabilities": null}
{"place_id": 987, "establishment": 8072, "name_fr": "Centre de pr\u00e9l\u00e8vements Joliette", "name_en": "Centre de pr\u00e9l\u00e8vements Joliette", "formatted_address": "380 boul. Base-de-Roc Joliette J6E9J6 Canada", "latitude": 46.0190305, "longitude": -73.43689, "is_virtual": 0, "availabilities": null}
{"place_id": 1005, "establishment": 8072, "name_fr": "Centre Hospitalier De Lanaudi\u00e8re (CHDL)", "name_en": "Centre Hospitalier De Lanaudi\u00e8re (CHDL)", "formatted_address": "1000 Boulevard Ste-Anne St-Charles-Borrom\u00e9e J6E6J2 Canada", "latitude": 46.0392121, "longitude": -73.4560379, "is_virtual": 0, "availabilities": null}
{"place_id": 1068, "establishment": 8072, "name_fr": "Centre de pr\u00e9l\u00e8vement temporaire Joliette", "name_en": "Centre de pr\u00e9l\u00e8vement temporaire Joliette", "formatted_address": "324 boul Antonio Barrette  Notre-Dame-des-Prairies J6E1G2 Canada", "latitude": 46.0475172, "longitude": -73.4243405, "is_virtual": 0, "availabilities": null}
{"place_id": 1055, "establishment": 8087, "name_fr": "CLSC et Centre d'h\u00e9bergement de Bedford", "name_en": "CLSC et Centre d'h\u00e9bergement de Bedford", "formatted_address": "34, rue Saint-Joseph Bedford J0J1A0 Canada", "latitude": 45.1255989, "longitude": -72.9834306, "is_virtual": 0, "availabilities": null}
{"place_id": 7433, "establishment": 60072, "name_fr": "CLSC Chertsey", "name_en": "CLSC Chertsey", "formatted_address": "485 Dupuis Chertsey  J0K3K0 Canada", "latitude": 46.0731484, "longitude": -73.8890359, "is_virtual": 0, "availabilities": null}
{"place_id": 1037, "establishment": 8084, "name_fr": "H\u00f4pital de Granby", "name_en": "H\u00f4pital de Granby", "formatted_address": "205, boulevard Leclerc Ouest Granby J2G1T7 Canada", "latitude": 45.4109924, "longitude": -72.7231282, "is_virtual": 0, "availabilities": null}
{"place_id": 6516, "establishment": 64779, "name_fr": "Proxim - Pharmacie Pierre-Hugues Braconnier et Caroline Cournoyer inc.", "name_en": "Proxim - Pharmacie Pierre-Hugues Braconnier et Caroline Cournoyer inc.", "formatted_address": "300 Rue Paradis Sorel-Tracy J3P3G6 Canada", "latitude": 46.041414, "longitude": -73.0929508, "is_virtual": 0, "availabilities": null}
{"place_id": 924, "establishment": 8057, "name_fr": "H\u00f4tel-Dieu de Sorel", "name_en": "H\u00f4tel-Dieu de Sorel", "formatted_address": "400 Avenue de l'H\u00f4tel-Dieu Sorel-Tracy J3P1N5 Canada", "latitude": 46.045066, "longitude": -73.0938175, "is_virtual": 0, "availabilities": null}
{"place_id": 7429, "establishment": 60071, "name_fr": "CLSC Berthier", "name_en": "CLSC Berthier", "formatted_address": "761 Notre-Dame Rue Berthierville J0K1A0 Canada", "latitude": 46.084515, "longitude": -73.1836612, "is_virtual": 0, "availabilities": null}
{"place_id": 1057, "establishment": 8087, "name_fr": "CLSC de Cowansville-du-Sud", "name_en": "CLSC de Cowansville-du-Sud", "formatted_address": "397, rue de la Rivi\u00e8re Cowansville J2K1N4 Canada", "latitude": 45.2079811, "longitude": -72.763367, "is_virtual": 0, "availabilities": null}
{"place_id": 1043, "establishment": 8085, "name_fr": "CLSC Bromont", "name_en": "CLSC Bromont", "formatted_address": "82, boulevard de Bromont, bureau\u00a0F101 Bromont  J2L2K3 Canada", "latitude": 45.3227942, "longitude": -72.6462271, "is_virtual": 0, "availabilities": null}
{"place_id": 7434, "establishment": 60072, "name_fr": "CLSC St Jean de Matha", "name_en": "CLSC St Jean de Matha", "formatted_address": "895 Route Louis Cyr Saint Jean de Matha J0K2S0 Canada", "latitude": 46.2251813, "longitude": -73.5250951, "is_virtual": 0, "availabilities": null}
{"place_id": 923, "establishment": 8056, "name_fr": "CLSC de la MRC-d\u2019Acton", "name_en": "CLSC de la MRC-d\u2019Acton", "formatted_address": "1266 Rue Lemay Acton Vale  J0H1A0 Canada", "latitude": 45.6496639, "longitude": -72.5704427, "is_virtual": 0, "availabilities": null}
{"place_id": 1038, "establishment": 8084, "name_fr": "CLSC de Waterloo", "name_en": "CLSC de Waterloo", "formatted_address": "48, rue Young Waterloo J0E2N0 Canada", "latitude": 45.3450642, "longitude": -72.518553, "is_virtual": 0, "availabilities": null}
{"place_id": 1044, "establishment": 8085, "name_fr": "CLSC Sutton", "name_en": "CLSC Sutton", "formatted_address": "45 Rue Principale N Sutton J0E2K0 Canada", "latitude": 45.1096206, "longitude": -72.6175843, "is_virtual": 0, "availabilities": null}
{"place_id": 7431, "establishment": 60071, "name_fr": "CLSC St-Gabriel", "name_en": "CLSC St-Gabriel", "formatted_address": "10 Saint-Gabriel Rue Saint-Gabriel-de-Brandon J0K2N0 Canada", "latitude": 46.2935439, "longitude": -73.3825037, "is_virtual": 0, "availabilities": null}
{"place_id": 1042, "establishment": 8085, "name_fr": "CLSC Ville de Lac-Brome", "name_en": "CLSC Ville de Lac-Brome", "formatted_address": "270, rue Victoria  Lac-Brome J0E1V0 Canada", "latitude": 45.2178217, "longitude": -72.5295813, "is_virtual": 0, "availabilities": null}
{"place_id": 4859, "establishment": 62003, "name_fr": "Costco DRUMMONDVILLE- Pharmacie Gr\u00e9goire Arakelian - Vaccin MODERNA", "name_en": "Costco DRUMMONDVILLE - Pharmacie Gr\u00e9goire Arakelian - MODERNA VACCINE", "formatted_address": "105, RUE ROBERT-BERNARD DRUMMONDVILLE J2C0P6 Canada", "latitude": 45.9079635, "longitude": -72.5152822, "is_virtual": 0, "availabilities": null}
{"place_id": 961, "establishment": 2002, "name_fr": "H\u00f4pital Sainte-Croix ", "name_en": "H\u00f4pital Sainte-Croix ", "formatted_address": "570, rue Heriot Drummondville  J2B1C1 Canada", "latitude": 45.8798859, "longitude": -72.4774274, "is_virtual": 0, "availabilities": null}
{"place_id": 942, "establishment": 8047, "name_fr": "H\u00f4pital Sainte-Croix \"usagers avec sympt\u00f4mes d'allure grippale\"", "name_en": "H\u00f4pital Sainte-Croix \"usagers avec sympt\u00f4mes d'allure grippale\"", "formatted_address": "570, rue H\u00e9riot poste #34 seulement (barr\u00e9e en tout temps) Drummondville J2B1C1 Canada", "latitude": 45.8798859, "longitude": -72.4774274, "is_virtual": 0, "availabilities": null}
{"place_id": 896, "establishment": 8047, "name_fr": "H\u00f4pital Sainte-Croix, Centre de Pr\u00e9l\u00e8vements Soucy", "name_en": "H\u00f4pital Sainte-Croix, Centre de Pr\u00e9l\u00e8vements Soucy", "formatted_address": "570, rue H\u00e9riot 1er \u00e9tage, Centre famille-Enfant poste #30 Drummondville  J2B1C1 Canada", "latitude": 45.8798859, "longitude": -72.4774274, "is_virtual": 0, "availabilities": null}
{"place_id": 962, "establishment": 2002, "name_fr": "GMF Saint-Nic\u00e9phore", "name_en": "GMF Saint-Nic\u00e9phore", "formatted_address": "4534, boulevard Saint-Joseph Drummondville  J2A1B5 Canada", "latitude": 45.8408946, "longitude": -72.4358464, "is_virtual": 0, "availabilities": null}
{"place_id": 956, "establishment": 2000, "name_fr": "Centre de services Avellin-Dalcourt", "name_en": "Centre de services Avellin-Dalcourt", "formatted_address": "450, 2e Rue Louiseville J5V1V3 Canada", "latitude": 46.2545103, "longitude": -72.9292161, "is_virtual": 0, "availabilities": null}
{"place_id": 890, "establishment": 8045, "name_fr": "Centre de services Avellin-Dalcourt", "name_en": "Centre de services Avellin-Dalcourt", "formatted_address": "450, 2e Rue Louiseville  J5V1V3 Canada", "latitude": 46.2545103, "longitude": -72.9292161, "is_virtual": 0, "availabilities": null}
{"place_id": 1063, "establishment": 8083, "name_fr": "Centre de sant\u00e9 et de services sociaux de Memphr\u00e9magog", "name_en": "Centre de sant\u00e9 et de services sociaux de Memphr\u00e9magog", "formatted_address": "1700 rue Sherbrooke, sous-sol Magog J1X2T3 Canada", "latitude": 45.2758734, "longitude": -72.129891, "is_virtual": 0, "availabilities": null}
{"place_id": 1326, "establishment": 1000, "name_fr": "Trois-Rivi\u00e8res- salle rue Bellefeuille", "name_en": "Trois-Rivi\u00e8res-salle", "formatted_address": "1922, rue Bellefeuille Trois-Rivi\u00e8res G9A3Y2 Canada", "latitude": 46.3403373, "longitude": -72.5514366, "is_virtual": 0, "availabilities": null}
{"place_id": 1059, "establishment": 8083, "name_fr": "CLSC - Urgence mineure - Centre d'h\u00e9bergement de Windsor", "name_en": "CLSC - Urgence mineure - Centre d'h\u00e9bergement de Windsor", "formatted_address": "23, rue Ambroise-Dearden Windsor J1S1G8 Canada", "latitude": 45.5706119, "longitude": -72.004814, "is_virtual": 0, "availabilities": null}
{"place_id": 1060, "establishment": 8083, "name_fr": "CSSS de Memphr\u00e9magog - Point de service Stanstead", "name_en": "CSSS de Memphr\u00e9magog - Point de service Stanstead", "formatted_address": "435, rue Dufferin Stanstead J0B3E2 Canada", "latitude": 45.0116707, "longitude": -72.0969904, "is_virtual": 0, "availabilities": null}
{"place_id": 1054, "establishment": 8086, "name_fr": "Centre de pr\u00e9l\u00e8vements Argyll\t", "name_en": "Centre de pr\u00e9l\u00e8vements Argyll\t", "formatted_address": "375, rue Argyll, porte 29 Sherbrooke J1J3H5 Canada", "latitude": 45.4044713, "longitude": -71.914797, "is_virtual": 0, "availabilities": null}
{"place_id": 1053, "establishment": 8086, "name_fr": "Centre de pr\u00e9l\u00e8vements \u00c9difice Murray", "name_en": "Centre de pr\u00e9l\u00e8vements \u00c9difice Murray", "formatted_address": "500, rue Murray, porte 503A Sherbrooke J1G2K6 Canada", "latitude": 45.40054, "longitude": -71.876239, "is_virtual": 0, "availabilities": null}
{"place_id": 1019, "establishment": 8082, "name_fr": "H\u00f4tel-Dieu de Sherbrooke", "name_en": "H\u00f4tel-Dieu de Sherbrooke", "formatted_address": "580, rue Bowen Sud, local 1331 Sherbrooke J1G2E8 Canada", "latitude": 45.3982853, "longitude": -71.8788756, "is_virtual": 0, "availabilities": null}
{"place_id": 1020, "establishment": 8082, "name_fr": "H\u00f4pital Fleurimont", "name_en": "H\u00f4pital Fleurimont", "formatted_address": "3001, 12e avenue N,local 2629 (SI vous \u00eates attendu pour un  spermogramme allez au  local 3629) Sherbrooke J1H5N4 Canada", "latitude": 45.447561, "longitude": -71.8681227, "is_virtual": 0, "availabilities": null}
{"place_id": 1052, "establishment": 8085, "name_fr": "CLSC Lennoxville", "name_en": "CLSC Lennoxville", "formatted_address": "8 rue Speid Sherbrooke J1M1R6 Canada", "latitude": 45.3688308, "longitude": -71.8591738, "is_virtual": 0, "availabilities": null}
{"place_id": 6667, "establishment": 64225, "name_fr": "Proxim - Pharmacie Suzie Roy et Claude Garceau Inc.", "name_en": "Proxim - Pharmacie Suzie Roy et Claude Garceau Inc.", "formatted_address": "1330 Avenue de Grand-M\u00e8re Shawinigan (Grand-M\u00e8re) G9T2J6 Canada", "latitude": 46.6089264, "longitude": -72.7012529, "is_virtual": 0, "availabilities": null}
{"place_id": 1058, "establishment": 8083, "name_fr": "Centre de sant\u00e9 et de services sociaux de la MRC-de-Coaticook ", "name_en": "Centre de sant\u00e9 et de services sociaux de la MRC-de-Coaticook", "formatted_address": "138, rue Jeanne-Mance Coaticook J1A1W3 Canada", "latitude": 45.1350991, "longitude": -71.8121313, "is_virtual": 0, "availabilities": null}
{"place_id": 1300, "establishment": 1046, "name_fr": "Clinique de vaccination alternative - Gatineau", "name_en": "Alternative  immunization clinic - Gatineau", "formatted_address": "456, Boulevard de l'H\u00f4pital Gatineau J8T8M5 Canada", "latitude": 45.4912431, "longitude": -75.6882259, "is_virtual": 0, "availabilities": null}
{"place_id": 1411, "establishment": 8117, "name_fr": "CLSC St-Ubalde", "name_en": "CLSC St-Ubalde", "formatted_address": "427A Boulevard Chabot Saint-Ubalde G0A4L0 Canada", "latitude": 46.7556257, "longitude": -72.2709887, "is_virtual": 0, "availabilities": null}
{"place_id": 1350, "establishment": 1046, "name_fr": "Clinique de vaccination alternative - Hull", "name_en": "Alternative immunization clinic - Hull", "formatted_address": "425 Boulevard Saint-Joseph Gatineau J8Y3Z8 Canada", "latitude": 45.4456609, "longitude": -75.7340534, "is_virtual": 0, "availabilities": null}
{"place_id": 1726, "establishment": 1046, "name_fr": "Clinique de vaccination de Lionel-\u00c9mond", "name_en": "Lionel-\u00c9mond vaccination clinique", "formatted_address": "125, boulevard Lionel-\u00c9mond Gatineau  Gatineau J8Y5S8 Canada", "latitude": 45.4452767, "longitude": -75.7484481, "is_virtual": 0, "availabilities": null}
{"place_id": 1428, "establishment": 1001, "name_fr": "CLSC de Saint-Marc-des-Carri\u00e8res", "name_en": "CLSC de Saint-Marc-des-Carri\u00e8res", "formatted_address": "1045, boul. Bona-Dussault Saint-Marc-des-Carri\u00e8res G0A4B0 Canada", "latitude": 46.680893, "longitude": -72.049739, "is_virtual": 0, "availabilities": null}
{"place_id": 1407, "establishment": 8116, "name_fr": "CLSC St-Marc-des-Carri\u00e8res", "name_en": "CLSC St-Marc-des-Carri\u00e8res", "formatted_address": "1045 Boulevard Bona Dussault Saint-Marc-des-Carri\u00e8res G0A4B0 Canada", "latitude": 46.680893, "longitude": -72.049739, "is_virtual": 0, "availabilities": null}
{"place_id": 1429, "establishment": 1001, "name_fr": "CLSC de Donnacona", "name_en": "CLSC de Donnacona", "formatted_address": "400, Route 138 Donnacona  G3M1C3 Canada", "latitude": 46.6818158, "longitude": -71.7244714, "is_virtual": 0, "availabilities": null}
{"place_id": 1408, "establishment": 8117, "name_fr": "CLSC Donnacona", "name_en": "CLSC Donnacona", "formatted_address": "400 138 Rte, Donnacona Qu\u00e9bec G3M1C3 Canada", "latitude": 46.6818158, "longitude": -71.7244714, "is_virtual": 0, "availabilities": null}
{"place_id": 1409, "establishment": 8117, "name_fr": "CLSC Pont-Rouge", "name_en": "CLSC Pont-Rouge", "formatted_address": "3 Rue du Jardin Pont-Rouge G3H0A8 Canada", "latitude": 46.7460582, "longitude": -71.6913551, "is_virtual": 0, "availabilities": null}
{"place_id": 1430, "establishment": 1001, "name_fr": "CLSC de Saint-Raymond", "name_en": "CLSC de Saint-Raymond", "formatted_address": "700 Rue Saint Cyrille Saint-Raymond G3L1V9 Canada", "latitude": 46.8953624, "longitude": -71.8224121, "is_virtual": 0, "availabilities": null}
{"place_id": 1406, "establishment": 8115, "name_fr": "H\u00f4pital r\u00e9gional de Portneuf", "name_en": "H\u00f4pital r\u00e9gional de Portneuf", "formatted_address": "700, rue St-Cyrille Saint-Raymond G3L1W1 Canada", "latitude": 46.8953624, "longitude": -71.8224121, "is_virtual": 0, "availabilities": null}
{"place_id": 1028, "establishment": 8083, "name_fr": "Centre de sant\u00e9 et de services sociaux du Granit", "name_en": "Centre de sant\u00e9 et de services sociaux du Granit", "formatted_address": "3569, rue Laval Lac-M\u00e9gantic G6B1A5 Canada", "latitude": 45.5886127, "longitude": -70.9057665, "is_virtual": 0, "availabilities": null}
{"place_id": 1653, "establishment": 8119, "name_fr": "CLSC de la Jacques Cartier (Ste-Catherine-de-la-Jacques Cartier)", "name_en": "CLSC de la Jacques Cartier (Ste-Catherine-de-la-Jacques Cartier)", "formatted_address": "4500, Route Fossambault Ste-Catherine-de-la-Jacques-Cartier G3N2T6 Canada", "latitude": 46.8396715, "longitude": -71.6088506, "is_virtual": 0, "availabilities": null}
{"place_id": 1656, "establishment": 8119, "name_fr": "CLSC Sainte-Foy-Sillery", "name_en": "CLSC Sainte-Foy-Sillery", "formatted_address": "3108, Chemin Ste-Foy Qu\u00e9bec G1X1P8 Canada", "latitude": 46.7750833, "longitude": -71.3125059, "is_virtual": 0, "availabilities": null}
{"place_id": 1424, "establishment": 1001, "name_fr": "CLSC Sainte-Foy", "name_en": "CLSC Sainte-Foy", "formatted_address": "3108 Ch Ste-Foy Qu\u00e9bec G1X1P8 Canada", "latitude": 46.7750833, "longitude": -71.3125059, "is_virtual": 0, "availabilities": null}
{"place_id": 1644, "establishment": 8119, "name_fr": "H\u00f4pital Chauveau", "name_en": "H\u00f4pital Chauveau", "formatted_address": "11 999, Rue de L\u2019H\u00f4pital Qu\u00e9bec G2A2T7 Canada", "latitude": 46.8536433, "longitude": -71.3709349, "is_virtual": 0, "availabilities": null}
{"place_id": 1425, "establishment": 1001, "name_fr": "CLSC de la Jacques-Cartier-Loretteville", "name_en": "CLSC de la Jacques-Cartier-Loretteville", "formatted_address": "11999 Rue de l'H\u00f4pital Qu\u00e9bec G2A2T7 Canada", "latitude": 46.8536433, "longitude": -71.3709349, "is_virtual": 0, "availabilities": null}
{"place_id": 1655, "establishment": 8119, "name_fr": "CLSC des Rivi\u00e8res (Christ-Roi)", "name_en": "CLSC des Rivi\u00e8res (Christ-Roi)", "formatted_address": "900, Boulevard Wilfrid-Hamel Qu\u00e9bec G1M2R9 Canada", "latitude": 46.8109218, "longitude": -71.2579152, "is_virtual": 0, "availabilities": null}
{"place_id": 1654, "establishment": 8119, "name_fr": "CLSC Basse-Ville", "name_en": "CLSC Basse-Ville", "formatted_address": "50, Rue St-Joseph Est Qu\u00e9bec G1K3A5 Canada", "latitude": 46.8125689, "longitude": -71.2302799, "is_virtual": 0, "availabilities": null}
{"place_id": 1648, "establishment": 8119, "name_fr": "CLSC La Source Nord", "name_en": "CLSC La Source Nord", "formatted_address": "791, Rue Sherwood Qu\u00e9bec G2N1X7 Canada", "latitude": 46.9051992, "longitude": -71.3202665, "is_virtual": 0, "availabilities": null}
{"place_id": 1647, "establishment": 8119, "name_fr": "CLSC La Source Sud", "name_en": "CLSC La Source Sud", "formatted_address": "190, 76e Rue Est Qu\u00e9bec G1H7K4 Canada", "latitude": 46.8591979, "longitude": -71.2652354, "is_virtual": 0, "availabilities": null}
{"place_id": 1650, "establishment": 8119, "name_fr": "CLSC Orl\u00e9ans (Marie-Renouard/IUSMQ- Robert-Giffard)", "name_en": "CLSC Orl\u00e9ans (Marie-Renouard/IUSMQ -Robert-Giffard )", "formatted_address": "2601, Chemin de la Canardi\u00e8re Qu\u00e9bec G1J2G3 Canada", "latitude": 46.8472649, "longitude": -71.2197672, "is_virtual": 0, "availabilities": null}
{"place_id": 1645, "establishment": 8119, "name_fr": "CLSC Orl\u00e9ans (Maizerets)", "name_en": "CLSC Orl\u00e9ans (Maizerets)", "formatted_address": "2480, Chemin de la Canardi\u00e8re Qu\u00e9bec G1J2G1 Canada", "latitude": 46.8438202, "longitude": -71.2181655, "is_virtual": 0, "availabilities": null}
{"place_id": 1484, "establishment": 1017, "name_fr": "Vaccination Covid-19 test", "name_en": "Vaccination Covid-19 test", "formatted_address": "12523 25e avenue Saint-Georges G5Z1R7 Canada", "latitude": 46.128736, "longitude": -70.6537483, "is_virtual": 0, "availabilities": null}
{"place_id": 1652, "establishment": 8119, "name_fr": "CLSC Orl\u00e9ans (Montmorency)", "name_en": "CLSC Orl\u00e9ans (Montmorency)", "formatted_address": "66, 103e rue Est Qu\u00e9bec G1C2Z1 Canada", "latitude": 46.8773007, "longitude": -71.1569876, "is_virtual": 0, "availabilities": null}
{"place_id": 1651, "establishment": 8119, "name_fr": "CLSC Orl\u00e9ans (\u00cele D\u2019Orl\u00e9ans)", "name_en": "CLSC Orl\u00e9ans (\u00cele D\u2019Orl\u00e9ans)", "formatted_address": "1395, Chemin Royal St-Pierre Ile D\u2019Orl\u00e9ans G0A4E0 Canada", "latitude": 46.8880376, "longitude": -71.0758228, "is_virtual": 0, "availabilities": null}
{"place_id": 1383, "establishment": 1017, "name_fr": "Clsc St-Prosper", "name_en": "Clsc St-Prosper", "formatted_address": "2770 20e Av Saint-Prosper G0M1Y0 Canada", "latitude": 46.2112933, "longitude": -70.4836817, "is_virtual": 0, "availabilities": null}
{"place_id": 1643, "establishment": 8119, "name_fr": "H\u00f4pital Sainte-Anne-de-Beaupr\u00e9", "name_en": "H\u00f4pital Sainte-Anne-de-Beaupr\u00e9", "formatted_address": "11000, rue des Montagnards Beaupr\u00e9 G0A1E0 Canada", "latitude": 47.0428211, "longitude": -70.8999481, "is_virtual": 0, "availabilities": null}
{"place_id": 1427, "establishment": 1001, "name_fr": "CLSC de Baie-Saint-Paul", "name_en": "CLSC de Baie-Saint-Paul", "formatted_address": "10 rue Boivin (2e \u00e9tage) Baie-Saint-Paul G3Z1S8 Canada", "latitude": 47.4416595, "longitude": -70.5068421, "is_virtual": 0, "availabilities": null}
{"place_id": 1426, "establishment": 1001, "name_fr": "CLSC de La Malbaie", "name_en": "CLSC de La Malbaie", "formatted_address": "535 Boulevard de Comport\u00e9 La Malbaie G5A1S8 Canada", "latitude": 47.654234, "longitude": -70.1484358, "is_virtual": 0, "availabilities": null}
{"place_id": 1369, "establishment": 1055, "name_fr": "H\u00d4TEL LE MONTAGNAIS, vaccination", "name_en": "SALLE DE BAL", "formatted_address": "1080 Boulevard Talbot saguenay G7H4B6 Canada", "latitude": 48.4107019, "longitude": -71.0539025, "is_virtual": 0, "availabilities": null}
{"place_id": 1370, "establishment": 1055, "name_fr": "INTERMED groupe sant\u00e9", "name_en": "INTERMED", "formatted_address": "412 Boulevard du Saguenay E Chicoutimi G7H7Y8 Canada", "latitude": 48.4295933, "longitude": -71.0542347, "is_virtual": 0, "availabilities": null}
{"place_id": 1169, "establishment": 1039, "name_fr": "Gallichan | CLSC", "name_en": "Gallichan | CLSC", "formatted_address": "207, chemin de la Rivi\u00e8re Ouest Gallichan J0Z2B0 Canada", "latitude": 48.6025129, "longitude": -79.2986873, "is_virtual": 0, "availabilities": null}
{"place_id": 7551, "establishment": 70034, "name_fr": "Soins \u00e0 domicile - Astra Z\u00e9n\u00e9ca", "name_en": "Soins \u00e0 domicile - Astra Z\u00e9n\u00e9ca", "formatted_address": "52 rue Belv\u00e9d\u00e8re SADM G4V1X4 Canada", "latitude": 49.1187577, "longitude": -66.4830111, "is_virtual": 0, "availabilities": null}
{"place_id": 7497, "establishment": 60002, "name_fr": "GASP - Sainte-Anne-des-Monts", "name_en": "GASP Sainte-Anne-des-Monts", "formatted_address": "205,7e rue Ouest Sainte-Anne-des-Monts G4V2L6 Canada", "latitude": 49.1191119, "longitude": -66.4852086, "is_virtual": 0, "availabilities": null}
{"place_id": 7254, "establishment": 70034, "name_fr": "CLSC de SADM - AstraZ\u00e9n\u00e9ca", "name_en": "CLSC de SADM - AstraZ\u00e9n\u00e9ca", "formatted_address": "52 rue Belv\u00e9d\u00e8re SADM G4V1X4 Canada", "latitude": 49.1187577, "longitude": -66.4830111, "is_virtual": 0, "availabilities": null}
{"place_id": 7495, "establishment": 60003, "name_fr": "Usine - Unip\u00eache MDM", "name_en": "Usine - Unip\u00eache MDM", "formatted_address": "66 avenue du Quai Pasp\u00e9biac G0C2K0 Canada", "latitude": 48.0205114, "longitude": -65.2550144, "is_virtual": 0, "availabilities": null}
{"place_id": 7620, "establishment": 60005, "name_fr": "LM Wind Power canada", "name_en": "LM Wind Power canada", "formatted_address": "7, rue des Cerisiers Gasp\u00e9 G4X2M1 Canada", "latitude": 48.8038269, "longitude": -64.492175, "is_virtual": 0, "availabilities": null}
{"place_id": 7525, "establishment": 60005, "name_fr": "H\u00f4pital de Gasp\u00e9", "name_en": "H\u00f4pital de Gasp\u00e9", "formatted_address": "215, York ouest Gasp\u00e9 G4X2W2 Canada", "latitude": 48.8129721, "longitude": -64.4951378, "is_virtual": 0, "availabilities": null}
{"place_id": 7623, "establishment": 60005, "name_fr": "C\u00e9gep de la Gasp\u00e9sie et des \u00celes", "name_en": "C\u00e9gep de la Gasp\u00e9sie et des \u00celes", "formatted_address": "98, rue Jacques Cartier Gasp\u00e9 G4X2S8 Canada", "latitude": 48.831974, "longitude": -64.4833507, "is_virtual": 0, "availabilities": null}
{"place_id": 7536, "establishment": 60064, "name_fr": "SAD des \u00celes", "name_en": "SAD des \u00eeles", "formatted_address": "430 Chemin Principal Cap-aux-Meules G4T1R9 Canada", "latitude": 47.3759863, "longitude": -61.8689378, "is_virtual": 0, "availabilities": null}
{"place_id": 1694, "establishment": 1043, "name_fr": "CHSLD", "name_en": "CHSLD", "formatted_address": "424, chemin Principal Cap-aux-Meules G4T1C9 Canada", "latitude": 47.3765121, "longitude": -61.8677852, "is_virtual": 0, "availabilities": null}
{"place_id": 7543, "establishment": 60064, "name_fr": "CHSLD Eudore-Labrie", "name_en": "CHSLD Eudore-Labrie", "formatted_address": "424 Chemin Principal Cap-aux-Meules G4T1C9 Canada", "latitude": 47.3765121, "longitude": -61.8677852, "is_virtual": 0, "availabilities": null}
{"place_id": 1695, "establishment": 1043, "name_fr": "Ch\u00e2teau Madelinot", "name_en": "Ch\u00e2teau Madelinot", "formatted_address": "323 QC-199, Fatima G4T2H6 Canada", "latitude": 47.3920128, "longitude": -61.8554134, "is_virtual": 0, "availabilities": null}
